street,city,state,zip,phone,cc,cc_type
0 Algoma Park,El Paso,Texas,79989,915-454-4961,5048375615946505,mastercard
6575 4th Hill,Evansville,Indiana,47737,812-467-1768,5048377501033216,mastercard
011 4th Trail,Tulsa,Oklahoma,74126,918-681-2379,5048373539650741,mastercard
06 Dahle Drive,Chicago,Illinois,60686,312-448-2596,5048376633124539,mastercard
3924 Lillian Drive,Duluth,Georgia,30195,404-407-9636,5108757953912362,mastercard
91976 Jenna Avenue,Honolulu,Hawaii,96845,808-183-5882,5108757147032242,mastercard
5 Butternut Street,Duluth,Minnesota,55805,218-376-9972,5048370611171497,mastercard
013 International Lane,El Paso,Texas,88525,915-492-2864,5048379794762618,mastercard
58 Rowland Junction,Idaho Falls,Idaho,83405,208-492-5075,5108751910224417,mastercard
5149 Thompson Hill,Huntington,West Virginia,25705,304-652-0981,5048376285522295,mastercard
9 Blue Bill Park Drive,Raleigh,North Carolina,27605,919-813-6221,5048372443980863,mastercard
2626 Aberg Center,Aurora,Colorado,80045,303-803-3309,5108755201079612,mastercard
19726 Macpherson Hill,Savannah,Georgia,31405,912-751-9828,5048374924957386,mastercard
2 Ludington Crossing,San Jose,California,95118,408-398-2896,5048379592396072,mastercard
87938 Eagle Crest Circle,Cambridge,Massachusetts,02142,857-404-1573,5108758013633766,mastercard
9230 Delaware Terrace,Washington,District of Columbia,20205,202-277-8338,5108758533338409,mastercard
78 Red Cloud Park,Minneapolis,Minnesota,55428,763-214-6007,5048370359803905,mastercard
56326 Melby Parkway,Madison,Wisconsin,53726,608-842-9140,5048376570114568,mastercard
1 Forest Dale Road,Newport Beach,California,92662,714-129-5780,5108752873321919,mastercard
3 Killdeer Alley,Davenport,Iowa,52809,563-831-3472,5048379586427149,mastercard
2958 Homewood Drive,Springfield,Virginia,22156,571-371-4555,5108753689392243,mastercard
9948 Boyd Terrace,Denton,Texas,76205,682-763-1991,5048373326154394,mastercard
853 Forest Run Court,Boulder,Colorado,80328,303-566-6207,5048373682283670,mastercard
34547 Clove Hill,Spokane,Washington,99210,509-605-2307,5108756801813970,mastercard
828 Marquette Crossing,Pompano Beach,Florida,33069,954-470-3881,5048372504685690,mastercard
6 Weeping Birch Avenue,Norwalk,Connecticut,06854,203-217-8760,5108755921198320,mastercard
8538 Mockingbird Parkway,Fort Lauderdale,Florida,33355,754-881-7119,5048377552066784,mastercard
5505 Tennessee Court,Tulsa,Oklahoma,74133,918-827-5035,5108759751209116,mastercard
181 Maple Wood Terrace,Salt Lake City,Utah,84110,801-303-8689,5048372522777339,mastercard
4941 5th Parkway,Reston,Virginia,22096,571-910-0590,5108753076847361,mastercard
12512 Londonderry Plaza,Atlanta,Georgia,30328,404-568-3206,5108754832150785,mastercard
06047 Golf Course Crossing,West Hartford,Connecticut,06127,860-197-1093,5048376663538392,mastercard
948 Menomonie Drive,Independence,Missouri,64054,816-604-2270,5108758950572100,mastercard
548 Hooker Crossing,New York City,New York,10120,212-677-9084,5048374833144175,mastercard
4 Forest Center,New York City,New York,10019,347-992-4998,5108757541446725,mastercard
4 Myrtle Point,Amarillo,Texas,79105,806-671-6867,5048373220588960,mastercard
967 Becker Center,Washington,District of Columbia,20016,703-972-8057,5108757182669619,mastercard
1 Crowley Pass,Durham,North Carolina,27717,919-348-1862,5048371677557496,mastercard
78 Stang Circle,Wilmington,Delaware,19897,302-403-5719,5108754587651532,mastercard
541 Amoth Crossing,Akron,Ohio,44321,330-721-8806,5108755874066714,mastercard
092 Columbus Way,Youngstown,Ohio,44555,330-867-8577,5108757139302181,mastercard
9685 Center Center,Santa Fe,New Mexico,87592,505-944-8680,5048375684850265,mastercard
2419 Westport Place,Waterloo,Iowa,50706,319-257-6869,5108759106846224,mastercard
713 Boyd Plaza,Pensacola,Florida,32575,850-678-8656,5108752445898014,mastercard
5134 Waubesa Way,Johnson City,Tennessee,37605,423-931-0947,5108751005734692,mastercard
584 Crownhardt Junction,Charleston,South Carolina,29403,843-485-6857,5048376632824758,mastercard
108 Westridge Court,Topeka,Kansas,66617,785-689-9911,5108756029175319,mastercard
5 Sloan Pass,Oklahoma City,Oklahoma,73173,405-776-4753,5108759405642886,mastercard
8 Summer Ridge Trail,Lynchburg,Virginia,24503,434-236-3932,5048371582085617,mastercard
9 Brickson Park Alley,Charlotte,North Carolina,28225,704-101-1648,5108755860210664,mastercard
8 Leroy Drive,Port Saint Lucie,Florida,34985,772-350-5022,5108752082675246,mastercard
4417 Bay Junction,Roanoke,Virginia,24029,540-605-9844,5108755699386651,mastercard
93982 East Court,Fort Myers,Florida,33913,239-669-2521,5108758059820186,mastercard
85 Fremont Parkway,Harrisburg,Pennsylvania,17121,717-442-8522,5108757354029469,mastercard
1 Stoughton Junction,Oklahoma City,Oklahoma,73135,405-899-6559,5048375000104934,mastercard
5347 Sommers Alley,Greenville,South Carolina,29605,864-306-1300,5108754036402768,mastercard
9080 Marquette Park,Indianapolis,Indiana,46221,317-701-7523,5108754594167340,mastercard
63277 7th Trail,Edmond,Oklahoma,73034,405-797-5908,5108753133106306,mastercard
8 Meadow Vale Junction,Monticello,Minnesota,55565,763-574-8156,5108755638153352,mastercard
68 Summerview Circle,Saint Paul,Minnesota,55166,651-489-0865,5048375121669997,mastercard
7446 Oak Plaza,Annapolis,Maryland,21405,301-693-4563,5048371469639569,mastercard
1 Mcbride Street,Boston,Massachusetts,02283,617-399-2708,5108751977993128,mastercard
4045 Karstens Hill,Rochester,New York,14624,585-253-0832,5108752273682241,mastercard
501 Lindbergh Park,Rochester,New York,14683,585-323-7309,5048376021239766,mastercard
5391 Elmside Circle,Boston,Massachusetts,02216,617-962-8753,5108757294124347,mastercard
89 Nelson Terrace,Houston,Texas,77276,713-693-1060,5108759795715805,mastercard
589 Lakewood Lane,Shreveport,Louisiana,71105,318-308-5445,5108757843091567,mastercard
9939 Lerdahl Court,Omaha,Nebraska,68197,402-455-0968,5108754260057700,mastercard
40 Vahlen Park,Memphis,Tennessee,38104,901-633-8536,5108753992598429,mastercard
6 Miller Lane,Valdosta,Georgia,31605,229-239-3902,5048378816302924,mastercard
5 Talmadge Place,Great Neck,New York,11024,516-716-2460,5048377611719373,mastercard
936 Northwestern Way,Madison,Wisconsin,53726,608-778-5200,5108754151824309,mastercard
7 Forest Parkway,Laurel,Maryland,20709,301-969-0758,5108753961468166,mastercard
70889 Grasskamp Road,Trenton,New Jersey,08603,609-392-7251,5108759475119054,mastercard
47 Sachs Center,Reston,Virginia,22096,571-410-6578,5108756802421120,mastercard
4 Morning Parkway,San Diego,California,92121,619-218-7769,5048376732636425,mastercard
3660 Mockingbird Center,Irvine,California,92717,714-177-6819,5108752425462492,mastercard
5 Tony Junction,Memphis,Tennessee,38114,901-827-6757,5108757923918358,mastercard
5272 6th Road,Pittsburgh,Pennsylvania,15286,412-735-1310,5048374136598119,mastercard
9590 Blue Bill Park Circle,Decatur,Georgia,30033,404-477-5158,5048379761993758,mastercard
9 Macpherson Alley,Pensacola,Florida,32590,850-153-3424,5108757385168450,mastercard
8 Montana Trail,Chicago,Illinois,60641,773-694-5418,5048376518684060,mastercard
63029 Daystar Center,Orlando,Florida,32835,321-611-2352,5048373286682970,mastercard
8852 Raven Junction,Peoria,Illinois,61651,309-813-2577,5048379893950031,mastercard
54 Crownhardt Trail,Tulsa,Oklahoma,74108,918-329-2424,5048376945383138,mastercard
9082 Longview Place,Jamaica,New York,11470,917-391-2457,5108751155362930,mastercard
93 Sunfield Alley,Huntsville,Alabama,35805,256-895-5276,5108754959890593,mastercard
37213 Russell Parkway,Louisville,Kentucky,40266,502-661-7856,5048373426747881,mastercard
0566 Upham Plaza,Tulsa,Oklahoma,74193,918-665-4909,5108758743749098,mastercard
6 Crowley Avenue,Cincinnati,Ohio,45254,513-579-7745,5108754025520505,mastercard
418 Northwestern Parkway,Atlanta,Georgia,31136,404-162-8736,5048374010346361,mastercard
6 Gerald Place,Terre Haute,Indiana,47812,812-106-1393,5108753335983890,mastercard
1 Kenwood Point,Columbus,Ohio,43231,614-958-2371,5108750419283841,mastercard
26 Spaight Lane,Portland,Oregon,97206,503-271-5787,5048375311791478,mastercard
3 Anniversary Center,Albuquerque,New Mexico,87180,505-883-1693,5048378780478874,mastercard
6 Dorton Way,Kansas City,Kansas,66112,913-476-0086,5108753564046955,mastercard
15758 Johnson Crossing,New Brunswick,New Jersey,08922,732-421-0891,5108752277958654,mastercard
1450 Myrtle Place,Tulsa,Oklahoma,74141,918-862-4346,5048377057845880,mastercard
511 Garrison Road,Jackson,Tennessee,38308,731-811-8447,5108759816108212,mastercard
6021 Bluestem Point,Irvine,California,92619,949-204-0177,5048375083796788,mastercard
606 Grayhawk Court,Baton Rouge,Louisiana,70815,225-933-3776,5048373362973368,mastercard
9342 Cordelia Junction,Austin,Texas,78721,512-554-8859,5048378376933464,mastercard
6 Maywood Hill,Indianapolis,Indiana,46231,317-580-3005,5048375125033414,mastercard
7257 Corry Pass,Newton,Massachusetts,02458,617-251-9186,5108751413836857,mastercard
74 Luster Terrace,Allentown,Pennsylvania,18105,610-243-3076,5108754711217044,mastercard
64 Pierstorff Road,Louisville,Kentucky,40225,502-341-9015,5108750115828287,mastercard
582 West Junction,San Diego,California,92196,619-437-8984,5048377267112683,mastercard
48 Buhler Street,New York City,New York,10105,212-552-2205,5108754557374180,mastercard
32 Jana Junction,Richmond,Virginia,23277,804-669-8821,5108755598271756,mastercard
7 Dottie Park,San Antonio,Texas,78225,210-379-8256,5048371696094703,mastercard
9743 Prentice Trail,Denver,Colorado,80209,719-808-4350,5108750885519918,mastercard
36098 Comanche Road,Pueblo,Colorado,81005,719-981-6354,5108754116991094,mastercard
3045 Milwaukee Center,Memphis,Tennessee,38150,901-657-9548,5048370030689756,mastercard
279 Bashford Terrace,Pittsburgh,Pennsylvania,15220,412-782-3592,5048379984069006,mastercard
58050 Florence Parkway,El Paso,Texas,88569,915-683-9042,5048374304210273,mastercard
572 Quincy Way,Dayton,Ohio,45408,937-966-8792,5108753315610752,mastercard
560 Lillian Road,San Antonio,Texas,78205,210-551-8240,5108752118883194,mastercard
90356 Haas Way,Brooklyn,New York,11231,212-631-1954,5108755301177084,mastercard
1508 Florence Plaza,Sacramento,California,95894,916-916-1483,5048372050298369,mastercard
7281 Pierstorff Junction,West Palm Beach,Florida,33421,561-779-3784,5108750951853365,mastercard
87174 Miller Circle,Tampa,Florida,33694,813-409-1152,5108754782899928,mastercard
7081 Buena Vista Avenue,Charlottesville,Virginia,22908,434-445-3524,5048379901949801,mastercard
6 Kenwood Court,Nashville,Tennessee,37245,615-117-2954,5108750960292449,mastercard
07 Ilene Parkway,Tuscaloosa,Alabama,35487,205-923-4389,5108756478037390,mastercard
080 Eagan Place,Longview,Texas,75605,903-704-0130,5048374002300061,mastercard
341 Lake View Point,Detroit,Michigan,48242,248-386-6646,5108754755956689,mastercard
85 Manitowish Trail,Fresno,California,93740,559-879-6979,5108759226070960,mastercard
0 Schmedeman Court,Colorado Springs,Colorado,80925,719-774-1367,5108752323925087,mastercard
3592 Dahle Park,Los Angeles,California,90071,310-196-3646,5048378038251727,mastercard
4085 Oriole Junction,Evansville,Indiana,47747,812-716-0027,5108759512750747,mastercard
153 Westerfield Hill,Dallas,Texas,75397,214-895-5099,5108750019197201,mastercard
4522 Elgar Alley,Lexington,Kentucky,40546,859-579-2546,5108758764845890,mastercard
0845 Autumn Leaf Street,Baton Rouge,Louisiana,70810,225-605-1809,5108759553401994,mastercard
977 Eggendart Avenue,Winston Salem,North Carolina,27105,336-120-3963,5108758886962755,mastercard
637 Forster Place,Beaufort,South Carolina,29905,843-237-5683,5108756984087137,mastercard
142 Dayton Lane,Yakima,Washington,98907,509-133-7151,5108750950251140,mastercard
73 Kenwood Circle,Great Neck,New York,11024,516-184-0998,5108759481485077,mastercard
02294 Elmside Trail,Oceanside,California,92056,858-293-4337,5048370845097385,mastercard
28500 Upham Center,Austin,Texas,78732,512-959-9545,5048373305088761,mastercard
297 Scofield Way,Fort Worth,Texas,76121,817-738-6222,5048374686862071,mastercard
546 Holmberg Pass,Saint Petersburg,Florida,33715,727-322-4439,5048376065957430,mastercard
531 Lerdahl Trail,Green Bay,Wisconsin,54305,920-352-3166,5108754995881861,mastercard
205 Village Lane,Honolulu,Hawaii,96845,808-506-4197,5048373097625804,mastercard
8922 Autumn Leaf Avenue,Des Moines,Iowa,50330,515-977-1405,5108757573942229,mastercard
4138 Havey Circle,Levittown,Pennsylvania,19058,267-745-8381,5048376698357842,mastercard
63082 Meadow Valley Court,Ventura,California,93005,805-959-2036,5108753468554179,mastercard
936 Sheridan Road,Migrate,Kentucky,41905,502-199-6543,5108759966911928,mastercard
97356 Kropf Junction,Lexington,Kentucky,40596,859-111-1320,5048373252181510,mastercard
257 Northview Point,Tuscaloosa,Alabama,35405,205-781-8753,5048376750269182,mastercard
9066 Judy Way,Midland,Texas,79710,432-546-9397,5048377274204093,mastercard
98 Saint Paul Pass,Boynton Beach,Florida,33436,561-760-0430,5108756558392954,mastercard
43486 Center Alley,Houston,Texas,77050,281-480-2481,5108757898776807,mastercard
0 Raven Way,San Francisco,California,94105,650-117-6297,5108758638021926,mastercard
4 Bonner Hill,Mount Vernon,New York,10557,914-859-8019,5108757593384253,mastercard
70 Miller Alley,Pittsburgh,Pennsylvania,15230,412-745-9272,5108758219032862,mastercard
3 Sommers Trail,Watertown,Massachusetts,02472,781-207-0866,5108753310101799,mastercard
453 Eastlawn Hill,Phoenix,Arizona,85067,602-986-0531,5108754624940955,mastercard
5 Holmberg Center,Cleveland,Ohio,44185,216-942-6892,5108757307141809,mastercard
522 Scott Lane,Syracuse,New York,13217,315-544-6553,5048375828163518,mastercard
5 Bobwhite Plaza,Lexington,Kentucky,40505,859-243-9631,5048372069804900,mastercard
165 Everett Alley,Port Charlotte,Florida,33954,941-148-4489,5108751654677671,mastercard
3 Valley Edge Center,Stockton,California,95210,209-603-9992,5048378649339853,mastercard
83 Kennedy Way,Las Vegas,Nevada,89110,702-675-7564,5048374978394668,mastercard
56 Buell Pass,Salt Lake City,Utah,84135,801-886-4950,5108756858358226,mastercard
74594 Buhler Street,Brooksville,Florida,34605,352-764-2465,5048377822590498,mastercard
688 West Avenue,Denver,Colorado,80255,720-858-8963,5048373434899195,mastercard
5 Granby Place,New Haven,Connecticut,06520,203-540-2520,5108754955784535,mastercard
139 Lerdahl Point,Huntington,West Virginia,25721,304-971-6191,5108751567637325,mastercard
2 Fremont Avenue,Omaha,Nebraska,68117,402-222-3293,5108756917732361,mastercard
1 Lunder Crossing,Wilmington,North Carolina,28410,910-238-9805,5108751218080826,mastercard
160 Esch Center,Jamaica,New York,11499,212-620-9946,5108754239958418,mastercard
98 Dexter Plaza,Fort Wayne,Indiana,46862,260-396-4959,5108754082120470,mastercard
84 Maywood Drive,Hattiesburg,Mississippi,39404,601-931-8313,5108754286247350,mastercard
07284 Del Sol Parkway,Macon,Georgia,31296,478-504-1954,5048379173573040,mastercard
76335 Reindahl Place,Houston,Texas,77035,713-771-5772,5108752673255622,mastercard
42 Brown Place,Bismarck,North Dakota,58505,701-150-2650,5108754005943560,mastercard
32 Loftsgordon Crossing,Lafayette,Louisiana,70505,337-751-0997,5108759630426147,mastercard
970 Bellgrove Parkway,Amarillo,Texas,79159,806-865-9227,5108753054229210,mastercard
040 Vahlen Court,Miami,Florida,33111,786-595-5179,5048376900793941,mastercard
91 Eagan Way,Atlanta,Georgia,30375,404-464-9126,5048374677621007,mastercard
747 Grasskamp Point,Dallas,Texas,75367,214-214-4338,5048378997071306,mastercard
5 Crest Line Road,New York City,New York,10292,212-158-0413,5048370776121188,mastercard
2 Victoria Place,San Bernardino,California,92410,951-389-4142,5048379299083908,mastercard
2304 Mifflin Parkway,Cincinnati,Ohio,45271,513-415-2273,5108758817156501,mastercard
74680 Goodland Plaza,Atlanta,Georgia,30336,404-719-5523,5108750644300741,mastercard
84 Cordelia Street,Boise,Idaho,83757,208-786-1115,5108756701158518,mastercard
72 Lakewood Gardens Circle,Mount Vernon,New York,10557,914-254-6582,5048379034184086,mastercard
8 Thackeray Court,Pittsburgh,Pennsylvania,15225,412-164-3843,5108757737972765,mastercard
9 Clove Point,San Jose,California,95150,408-861-5284,5048373239390416,mastercard
80 Knutson Alley,Portland,Oregon,97232,971-462-5402,5048378476232510,mastercard
08 Graceland Park,Washington,District of Columbia,20041,703-434-9768,5048373034877567,mastercard
68346 Fallview Drive,Mobile,Alabama,36622,251-602-9006,5048376620165784,mastercard
173 Blue Bill Park Trail,Atlanta,Georgia,31196,404-321-3646,5108759244338043,mastercard
3 Mcguire Road,Torrance,California,90505,310-953-0618,5048376696424990,mastercard
90 Canary Pass,Macon,Georgia,31205,478-282-4439,5048372525814238,mastercard
381 Sugar Pass,San Antonio,Texas,78235,210-421-9684,5108754999638036,mastercard
7 Hintze Court,Des Moines,Iowa,50320,515-315-9144,5108755445647463,mastercard
64 Armistice Pass,Austin,Texas,78715,512-116-6084,5108752007361476,mastercard
164 Judy Plaza,Denver,Colorado,80249,303-259-5301,5108757214725900,mastercard
56226 Kings Center,San Francisco,California,94137,415-782-1781,5048375593757320,mastercard
5 Namekagon Point,Amarillo,Texas,79165,806-826-5365,5048372722009731,mastercard
99388 Cambridge Avenue,Gainesville,Florida,32610,352-157-4265,5048372485792101,mastercard
69 Old Gate Plaza,Tampa,Florida,33615,813-769-7874,5108753922947274,mastercard
203 Hanson Road,Memphis,Tennessee,38126,901-613-5612,5108754681081537,mastercard
0636 Banding Lane,Seattle,Washington,98133,425-802-9702,5048373508663675,mastercard
2291 John Wall Drive,Paterson,New Jersey,07544,862-739-9181,5108759701480239,mastercard
76 Bobwhite Terrace,Alexandria,Louisiana,71307,318-387-3286,5108753295728517,mastercard
36 Morrow Hill,Birmingham,Alabama,35285,205-980-5527,5048379483100625,mastercard
04 Comanche Crossing,Tuscaloosa,Alabama,35487,205-395-8926,5108759212127543,mastercard
77 Luster Park,Cleveland,Ohio,44191,216-268-4821,5048379351518247,mastercard
0 Basil Way,Louisville,Kentucky,40215,502-894-1928,5048377835745295,mastercard
4 Village Terrace,Decatur,Georgia,30033,404-994-0884,5108758290204323,mastercard
7922 Hovde Court,Denver,Colorado,80262,303-898-4085,5048379223659286,mastercard
97480 Boyd Court,Cleveland,Ohio,44185,216-115-1443,5048371770155966,mastercard
1 Ronald Regan Circle,Sterling,Virginia,20167,571-882-5087,5108750429446958,mastercard
58 Boyd Avenue,Saint Paul,Minnesota,55172,651-794-3826,5108756088530420,mastercard
61521 Waxwing Point,Green Bay,Wisconsin,54305,920-150-9847,5048377604974712,mastercard
23105 Sunnyside Pass,Washington,District of Columbia,20392,202-297-6161,5108757394084391,mastercard
2304 Valley Edge Point,Bonita Springs,Florida,34135,941-671-0113,5048376565561237,mastercard
11852 Hayes Point,Richmond,Virginia,23289,804-347-6154,5048372296284934,mastercard
46864 Anthes Park,Moreno Valley,California,92555,951-403-4987,5048372312126747,mastercard
5321 Vermont Park,Wichita,Kansas,67260,316-427-2381,5048379628104029,mastercard
1481 Muir Plaza,Springfield,Illinois,62723,217-943-0961,5108755057927013,mastercard
76 3rd Trail,New York City,New York,10009,646-346-2416,5108757264987376,mastercard
89 Di Loreto Plaza,Louisville,Kentucky,40225,502-420-9278,5108753280878624,mastercard
38394 Dovetail Avenue,Ocala,Florida,34479,352-247-7252,5048375330483099,mastercard
60290 Cordelia Hill,Las Vegas,Nevada,89120,702-208-8637,5048379256299752,mastercard
482 Mayfield Terrace,Pensacola,Florida,32520,850-480-4811,5108751060224928,mastercard
6 Division Drive,Athens,Georgia,30610,706-736-8770,5108751740730344,mastercard
4270 Forster Pass,Richmond,Virginia,23289,804-367-2798,5048372596062568,mastercard
93 Browning Way,Denver,Colorado,80255,720-335-2471,5108756528029025,mastercard
28215 Quincy Place,Carol Stream,Illinois,60158,309-692-7424,5108758616748276,mastercard
410 Loeprich Court,Denver,Colorado,80241,720-144-0185,5108755474870440,mastercard
94729 Roth Way,Tampa,Florida,33633,813-632-5437,5108754366783886,mastercard
7686 Delaware Court,Myrtle Beach,South Carolina,29579,843-223-5818,5048378922623114,mastercard
92805 Graceland Parkway,Bethesda,Maryland,20892,301-778-8971,5048370500689377,mastercard
203 Pleasure Center,Lexington,Kentucky,40586,859-632-1641,5108754039900586,mastercard
09100 Lindbergh Parkway,San Jose,California,95108,408-717-6609,5108758217059255,mastercard
32 Debs Trail,Reno,Nevada,89510,775-475-1190,5048377297043247,mastercard
3 Union Circle,Lansing,Michigan,48919,517-700-6656,5108755318847802,mastercard
71038 Quincy Alley,Honolulu,Hawaii,96805,808-345-2701,5048375250602496,mastercard
34 Doe Crossing Trail,Harrisburg,Pennsylvania,17140,717-318-8105,5108754441130673,mastercard
6 Scofield Drive,Washington,District of Columbia,20062,202-593-7669,5108756564990544,mastercard
91125 Dottie Pass,Shreveport,Louisiana,71166,318-202-8775,5108759462422008,mastercard
83066 Mallard Point,Silver Spring,Maryland,20904,301-345-7828,5048375960355435,mastercard
15351 Delladonna Parkway,Las Vegas,Nevada,89135,702-356-0156,5048370550308035,mastercard
20 Forest Avenue,Clearwater,Florida,33763,727-764-0486,5108751228766067,mastercard
31 Heffernan Street,Tulsa,Oklahoma,74103,918-158-8635,5108755768934332,mastercard
692 Autumn Leaf Park,Birmingham,Alabama,35285,205-515-2885,5048375399438844,mastercard
3140 Straubel Park,Boston,Massachusetts,02283,617-907-1672,5048378491590454,mastercard
67 Marquette Hill,Reno,Nevada,89519,775-307-6938,5048370413571100,mastercard
70415 Waxwing Terrace,Birmingham,Alabama,35225,205-748-5511,5048378394859436,mastercard
68355 Rieder Lane,Washington,District of Columbia,20299,202-159-6710,5108754630111575,mastercard
17 Straubel Pass,Toledo,Ohio,43615,419-940-8307,5048374613418161,mastercard
59053 Bay Junction,Johnstown,Pennsylvania,15906,814-216-9440,5108757184468168,mastercard
77274 Blue Bill Park Trail,New York City,New York,10292,212-218-8158,5048372097109587,mastercard
5613 Carey Road,Atlanta,Georgia,31119,770-972-0146,5048375912109666,mastercard
49785 Lien Junction,Monroe,Louisiana,71213,318-540-9872,5048373710356324,mastercard
91578 Karstens Alley,Athens,Georgia,30605,706-614-9677,5048370827111022,mastercard
637 Delaware Avenue,Saint Cloud,Minnesota,56372,320-262-9058,5048377788765449,mastercard
98 Northview Point,New Haven,Connecticut,06533,203-451-0226,5108753895537813,mastercard
33670 Leroy Pass,Spring Hill,Florida,34611,352-867-4501,5048377888336315,mastercard
759 Gateway Street,Fargo,North Dakota,58106,701-520-4927,5048372142065271,mastercard
41 Sloan Crossing,Dallas,Texas,75392,214-590-8126,5108756732209371,mastercard
6890 Union Junction,Rochester,New York,14646,585-962-7681,5048378273884364,mastercard
83 Hazelcrest Hill,Rochester,Minnesota,55905,507-914-2428,5108753007426509,mastercard
02 Debra Junction,Palo Alto,California,94302,650-117-4215,5048374613735622,mastercard
80 Clove Lane,Boston,Massachusetts,02109,617-572-0379,5108753200318784,mastercard
0 Merry Center,Seattle,Washington,98133,425-127-9819,5048375042831049,mastercard
509 Hollow Ridge Plaza,Bakersfield,California,93381,661-494-3224,5108754691875084,mastercard
6 Dapin Avenue,Omaha,Nebraska,68134,402-674-6259,5048374978605816,mastercard
7 Spaight Park,Tacoma,Washington,98464,253-257-6383,5048379600007091,mastercard
2 Pond Street,Honolulu,Hawaii,96815,808-924-9098,5048371592205262,mastercard
05942 Melody Way,Dallas,Texas,75277,214-818-4569,5108759818998735,mastercard
5 Jenifer Terrace,Athens,Georgia,30605,706-497-3244,5048376686558096,mastercard
2 Merchant Place,Houston,Texas,77040,979-812-9982,5108754049326509,mastercard
076 South Place,Gaithersburg,Maryland,20883,240-404-5884,5108750625397674,mastercard
7 Mandrake Place,Omaha,Nebraska,68197,402-310-4894,5048379096702668,mastercard
6 Roth Point,Van Nuys,California,91406,818-128-3491,5048376694755965,mastercard
71830 Packers Trail,Washington,District of Columbia,20535,202-164-2589,5108752406248589,mastercard
5 Springview Center,Detroit,Michigan,48232,313-830-0722,5048379217156992,mastercard
38171 Westport Place,Indianapolis,Indiana,46216,317-320-6079,5048372675375741,mastercard
270 Cambridge Place,Las Vegas,Nevada,89178,702-966-9931,5108756317901327,mastercard
09 Gina Alley,Everett,Washington,98206,425-779-8347,5108757649349169,mastercard
21 Gale Plaza,Tampa,Florida,33694,813-419-6510,5048376575646648,mastercard
82 7th Parkway,Muskegon,Michigan,49444,231-760-4012,5048372527748848,mastercard
16 Susan Park,Staten Island,New York,10310,718-236-8067,5048373442834796,mastercard
58608 Shopko Junction,Jamaica,New York,11407,516-588-0634,5048375690622948,mastercard
378 Buhler Avenue,Lincoln,Nebraska,68524,402-818-9513,5108754898510435,mastercard
27 Hallows Way,Charlotte,North Carolina,28225,704-665-6191,5108759106617278,mastercard
7 Eastlawn Park,Oxnard,California,93034,805-402-0693,5108752473286207,mastercard
1 Melody Circle,Des Moines,Iowa,50981,515-801-1198,5048373495320172,mastercard
2 Straubel Terrace,Seattle,Washington,98127,206-180-9876,5108756874410910,mastercard
12 Del Sol Parkway,Detroit,Michigan,48232,313-831-4358,5108750659869762,mastercard
20540 East Junction,Fort Worth,Texas,76162,682-376-9679,5048375401062749,mastercard
81734 Park Meadow Center,Miami,Florida,33169,954-382-3642,5108752295101568,mastercard
27 Messerschmidt Hill,Phoenix,Arizona,85040,480-843-6383,5108754423465311,mastercard
78 Pankratz Pass,Saint Louis,Missouri,63150,314-827-6989,5108750906010277,mastercard
82650 Hermina Court,Atlanta,Georgia,30343,404-656-1409,5108758523025230,mastercard
30 Quincy Terrace,Fort Lauderdale,Florida,33320,754-941-8354,5108754294583176,mastercard
807 Messerschmidt Plaza,Baton Rouge,Louisiana,70820,225-170-9472,5048372239559806,mastercard
038 Helena Crossing,Baltimore,Maryland,21290,410-727-9301,5108752814428971,mastercard
23 Mariners Cove Road,Raleigh,North Carolina,27610,919-627-4139,5108751350120430,mastercard
2 Redwing Terrace,Montgomery,Alabama,36134,334-477-4678,5048370850014754,mastercard
590 Jackson Place,Fresno,California,93704,559-640-1230,5048376270221374,mastercard
5 Sycamore Pass,Philadelphia,Pennsylvania,19146,215-284-6645,5048372491960528,mastercard
6547 Sauthoff Road,Juneau,Alaska,99812,907-112-0344,5048370387144231,mastercard
83 Knutson Place,Dayton,Ohio,45490,937-237-6718,5048373511637070,mastercard
229 Twin Pines Drive,Mount Vernon,New York,10557,914-743-7287,5108755005107973,mastercard
59 International Point,Fort Worth,Texas,76162,682-276-4876,5108755649548947,mastercard
20 Carpenter Trail,Wilkes Barre,Pennsylvania,18768,570-892-6989,5108751489217909,mastercard
2 Eggendart Place,Gainesville,Florida,32627,352-537-1717,5048378705615543,mastercard
92 Eagan Trail,Saint Paul,Minnesota,55115,651-459-8822,5048376678278117,mastercard
98374 Bluejay Street,Lexington,Kentucky,40546,859-767-1853,5048377424642937,mastercard
01 Sunnyside Park,Atlanta,Georgia,31119,770-947-8181,5048379632933058,mastercard
71328 Barby Court,Beaverton,Oregon,97075,503-835-5239,5108752632892671,mastercard
60891 Blaine Lane,Pittsburgh,Pennsylvania,15255,412-139-3746,5108750730809787,mastercard
6 Main Trail,Louisville,Kentucky,40215,502-646-9782,5108751062782360,mastercard
541 Barby Hill,Fullerton,California,92640,559-993-7541,5108751898730609,mastercard
2 Evergreen Terrace,Johnstown,Pennsylvania,15906,814-279-4874,5048372287155036,mastercard
6049 Melvin Point,Worcester,Massachusetts,01654,508-783-1100,5048375236507504,mastercard
190 Schmedeman Place,Washington,District of Columbia,20397,202-231-9618,5048376522442695,mastercard
6977 Barby Circle,Dallas,Texas,75221,972-108-3029,5108758687953078,mastercard
3936 6th Junction,Mobile,Alabama,36622,251-799-2388,5108759469381090,mastercard
41 Anderson Crossing,New Haven,Connecticut,06533,203-476-3137,5108756967334753,mastercard
4 Washington Pass,Madison,Wisconsin,53710,608-894-0158,5108757288072494,mastercard
7168 Kensington Point,Austin,Texas,78744,361-694-0650,5108755599788642,mastercard
8225 Gateway Terrace,Wichita Falls,Texas,76310,940-217-6208,5108753935167118,mastercard
205 Lake View Point,Killeen,Texas,76544,254-514-4694,5108757568189943,mastercard
52 Thierer Parkway,Newark,New Jersey,07195,862-476-2116,5108758274446957,mastercard
5 Southridge Junction,Austin,Texas,78732,512-688-9726,5048370639674951,mastercard
007 Kingsford Terrace,Houston,Texas,77065,832-839-6567,5108751034537199,mastercard
2860 Karstens Road,Gaithersburg,Maryland,20883,240-802-0716,5048371379033069,mastercard
0826 Kipling Park,Houston,Texas,77293,281-516-9374,5108750830717872,mastercard
5 2nd Drive,Tampa,Florida,33610,813-363-2298,5108754155178694,mastercard
423 Rockefeller Center,Charleston,South Carolina,29411,843-793-3855,5048371102167473,mastercard
56370 Emmet Terrace,El Paso,Texas,79950,915-729-0381,5108753247922424,mastercard
585 Fairview Drive,Flushing,New York,11355,718-531-5616,5108750587609769,mastercard
861 Portage Hill,Salt Lake City,Utah,84125,801-225-1487,5108750576701205,mastercard
9 Kensington Alley,Panama City,Florida,32405,850-195-0680,5048370497311233,mastercard
115 Straubel Place,Boise,Idaho,83722,208-294-3708,5108756989740722,mastercard
8 Lotheville Point,El Paso,Texas,79923,915-467-2723,5108753709230753,mastercard
677 Hoffman Alley,Sacramento,California,94245,916-853-5537,5048378714551390,mastercard
9 Mifflin Plaza,Oklahoma City,Oklahoma,73190,405-916-1853,5108759075727215,mastercard
962 Jenifer Hill,Dayton,Ohio,45419,513-600-8395,5108750276683166,mastercard
437 Vernon Road,Honolulu,Hawaii,96815,808-366-0127,5108755397381707,mastercard
85 Anniversary Hill,Tacoma,Washington,98481,253-436-2621,5108752887344477,mastercard
08 Crescent Oaks Park,Phoenix,Arizona,85077,602-125-3631,5108759269781259,mastercard
50639 Sutherland Court,Dayton,Ohio,45408,937-729-2905,5108753486220084,mastercard
6264 Everett Trail,Orlando,Florida,32830,407-269-9015,5048377840175223,mastercard
2528 Holmberg Crossing,Buffalo,New York,14225,716-356-1962,5048371671488292,mastercard
4816 Kim Junction,Washington,District of Columbia,20319,202-202-7813,5108750081286130,mastercard
82389 Talisman Trail,El Paso,Texas,79923,915-366-2677,5108752817774348,mastercard
16 Melody Avenue,Oakland,California,94611,415-661-2057,5048375967613265,mastercard
264 Milwaukee Plaza,San Antonio,Texas,78260,210-111-5610,5048372652060787,mastercard
36 Dottie Road,North Little Rock,Arkansas,72199,501-593-0300,5108752913288177,mastercard
74 Rieder Hill,New Orleans,Louisiana,70174,504-474-0481,5108759471999574,mastercard
115 Loomis Hill,Anchorage,Alaska,99512,907-815-3721,5108756890544551,mastercard
7 Bowman Lane,Tyler,Texas,75705,903-944-9326,5108756588653987,mastercard
26 Atwood Point,Dallas,Texas,75372,214-157-4439,5108759569780068,mastercard
326 Fuller Hill,Hartford,Connecticut,06145,860-161-5731,5108751468888779,mastercard
6867 Westridge Circle,Harrisburg,Pennsylvania,17105,717-499-0409,5108752797640717,mastercard
15719 Northview Terrace,Augusta,Georgia,30911,706-821-5641,5108755744982777,mastercard
88 Vera Avenue,Los Angeles,California,90094,323-788-1540,5048378664938910,mastercard
6 East Parkway,Los Angeles,California,90020,818-995-4864,5048376056871756,mastercard
79686 Raven Court,Philadelphia,Pennsylvania,19115,215-496-6915,5108755708830616,mastercard
26 Anthes Street,Indianapolis,Indiana,46254,317-719-0106,5048373088131515,mastercard
3576 Manitowish Alley,Ocala,Florida,34479,352-724-6710,5108753452262193,mastercard
028 Hoepker Terrace,Houston,Texas,77060,713-878-4701,5048377710068649,mastercard
89436 Schiller Terrace,Roanoke,Virginia,24048,540-821-8253,5108755963181358,mastercard
03 Hovde Hill,Lehigh Acres,Florida,33972,863-650-4313,5048376589780854,mastercard
57566 Alpine Road,Atlanta,Georgia,31106,404-353-4153,5108759688341388,mastercard
610 Hooker Court,San Diego,California,92160,619-607-2368,5108756048530882,mastercard
70 Briar Crest Alley,Houston,Texas,77281,713-588-3458,5108754400126787,mastercard
0584 Moulton Hill,Rockford,Illinois,61105,815-839-1359,5048373383748740,mastercard
092 Cottonwood Plaza,Jamaica,New York,11447,718-289-7901,5048371358014056,mastercard
8 Veith Point,Sarasota,Florida,34276,941-914-0009,5108751687514669,mastercard
0 Hagan Lane,Gulfport,Mississippi,39505,228-378-2507,5108752198112357,mastercard
7171 Forster Crossing,Amarillo,Texas,79171,806-605-1055,5048375830397476,mastercard
6118 Gateway Alley,Houston,Texas,77085,713-574-4112,5048372819699428,mastercard
7 Bellgrove Junction,Jacksonville,Florida,32255,904-223-6841,5048377559037622,mastercard
5 Ludington Plaza,Baltimore,Maryland,21216,410-681-8777,5048370461530461,mastercard
8598 West Circle,Humble,Texas,77346,281-225-0876,5108757966747771,mastercard
2 Sundown Trail,Fort Lauderdale,Florida,33310,754-876-3783,5048373508453150,mastercard
5 Toban Park,San Antonio,Texas,78278,210-215-2444,5108751640039994,mastercard
2183 Manley Plaza,Fairbanks,Alaska,99709,907-854-5340,5108757584431329,mastercard
558 Eagan Court,Denver,Colorado,80291,303-621-3656,5048378572134065,mastercard
44 Westport Court,Corpus Christi,Texas,78470,361-732-7144,5108754638445504,mastercard
4 Golf View Avenue,Macon,Georgia,31296,478-291-3900,5108751186595441,mastercard
622 Sommers Point,Dayton,Ohio,45454,937-212-2452,5048371240388718,mastercard
37688 Walton Point,Hollywood,Florida,33028,954-647-6406,5048376453991744,mastercard
6 Schlimgen Lane,Las Vegas,Nevada,89193,702-504-2586,5048374315305591,mastercard
34 Moulton Hill,Syracuse,New York,13217,315-569-1869,5108752864299314,mastercard
98523 Eggendart Circle,Las Vegas,Nevada,89125,702-355-5701,5048376027382578,mastercard
94 Melvin Road,Reno,Nevada,89550,775-678-7685,5108752166278909,mastercard
4035 Dahle Way,Brooklyn,New York,11236,917-516-4045,5048375175861110,mastercard
452 Bluestem Court,Fort Worth,Texas,76121,817-507-1576,5108754194184349,mastercard
648 Manufacturers Point,Bakersfield,California,93311,661-513-7434,5048378340096547,mastercard
243 Gerald Park,Huntsville,Alabama,35815,256-613-3360,5108759187170239,mastercard
316 Atwood Hill,Indianapolis,Indiana,46266,317-726-8146,5108759294162947,mastercard
6583 Briar Crest Court,Hialeah,Florida,33018,305-914-9637,5108758495499884,mastercard
15520 Dovetail Junction,Baton Rouge,Louisiana,70820,225-988-9210,5108752907091439,mastercard
8 Oneill Plaza,Brooklyn,New York,11220,718-532-2903,5108755524884441,mastercard
997 Carioca Circle,Alexandria,Virginia,22309,703-300-4125,5048374922855343,mastercard
35 Melody Avenue,Evansville,Indiana,47737,812-923-6959,5108751232775286,mastercard
86994 Upham Hill,Huntsville,Alabama,35810,256-626-0773,5108752879772131,mastercard
05 Gateway Terrace,Washington,District of Columbia,20046,202-134-1423,5108752603055498,mastercard
8761 Mendota Park,Tempe,Arizona,85284,480-404-7592,5048370729293340,mastercard
096 Heffernan Pass,Washington,District of Columbia,20370,202-275-2333,5108753369332378,mastercard
452 Debs Center,Gary,Indiana,46406,219-280-5387,5108754544134044,mastercard
674 Red Cloud Avenue,Mesa,Arizona,85210,928-769-1592,5048373324346935,mastercard
8070 Summerview Pass,Cincinnati,Ohio,45228,513-500-4204,5048371949496747,mastercard
29208 Stuart Place,Rochester,New York,14624,585-815-6906,5048375310927826,mastercard
626 Fuller Court,Saint Joseph,Missouri,64504,816-982-4380,5108758239793444,mastercard
354 Memorial Circle,Santa Monica,California,90405,818-848-8615,5048375535049299,mastercard
76 Arrowood Alley,Daytona Beach,Florida,32118,386-566-8286,5108758407264111,mastercard
92 Autumn Leaf Way,Pinellas Park,Florida,34665,850-243-3571,5048375159173508,mastercard
0 Annamark Drive,Norwalk,Connecticut,06859,203-943-6264,5108754602000574,mastercard
78083 Homewood Avenue,Saint Petersburg,Florida,33731,727-778-7442,5108758658038891,mastercard
72400 Laurel Way,Albany,New York,12237,518-430-9728,5048374262576640,mastercard
0349 Oakridge Point,San Mateo,California,94405,805-452-0193,5048376794224151,mastercard
05 Shelley Court,Ventura,California,93005,805-450-0820,5108752525271868,mastercard
43 Jana Parkway,Laurel,Maryland,20709,410-646-2164,5108750972002216,mastercard
3 Almo Parkway,Akron,Ohio,44393,234-416-0403,5108758418378215,mastercard
10456 Boyd Road,Miami,Florida,33261,305-157-0052,5048376454944346,mastercard
22057 Nelson Center,Corpus Christi,Texas,78410,361-335-4381,5048379763886778,mastercard
74884 Carey Lane,Durham,North Carolina,27717,919-616-2206,5048376565121552,mastercard
1415 Clyde Gallagher Circle,El Paso,Texas,88541,915-208-3707,5048372277030736,mastercard
01870 Lakewood Trail,Atlanta,Georgia,30375,404-745-8449,5108756461401181,mastercard
68430 Clarendon Junction,Washington,District of Columbia,20088,202-264-0325,5048373483640136,mastercard
987 Clarendon Hill,Bronx,New York,10454,718-148-7595,5108759789465136,mastercard
7556 Donald Plaza,Los Angeles,California,90040,323-283-2430,5108758343374016,mastercard
14785 Debs Avenue,San Jose,California,95113,650-886-3418,5108753062983436,mastercard
71 Mitchell Crossing,Vero Beach,Florida,32969,772-171-2876,5108756353089425,mastercard
34665 Luster Plaza,Orange,California,92867,949-753-1228,5048377688648851,mastercard
0 Norway Maple Way,Knoxville,Tennessee,37931,865-404-7759,5048374129779775,mastercard
87451 Golf View Place,Fort Lauderdale,Florida,33305,954-832-0656,5108752355123593,mastercard
07336 Messerschmidt Crossing,Carson City,Nevada,89706,775-952-4075,5108750002689545,mastercard
96453 Anderson Drive,Washington,District of Columbia,20520,202-768-3709,5048376088431116,mastercard
72 Sommers Terrace,New York City,New York,10034,646-964-2499,5048379328966123,mastercard
82691 Waubesa Junction,Canton,Ohio,44760,234-290-7789,5048374240017162,mastercard
6205 Namekagon Pass,Littleton,Colorado,80161,303-118-4616,5048370852940071,mastercard
9215 Harbort Court,Seattle,Washington,98195,206-589-1561,5108755314694927,mastercard
2 Hooker Crossing,Grand Rapids,Michigan,49510,616-774-6682,5048379867599038,mastercard
0 Garrison Court,Albany,New York,12255,518-934-8307,5048374995547454,mastercard
4 Scott Lane,Montgomery,Alabama,36104,334-206-1871,5108750794710244,mastercard
7469 Morning Avenue,Saint Cloud,Minnesota,56398,320-463-3363,5048374559613692,mastercard
260 Washington Court,Cincinnati,Ohio,45213,513-432-0328,5108750092634146,mastercard
42761 Kenwood Lane,Inglewood,California,90305,323-285-6979,5048376683188046,mastercard
1727 Huxley Hill,Portland,Oregon,97296,503-297-3070,5108758426358472,mastercard
409 Sachtjen Park,Albany,New York,12255,518-825-2690,5108756288699843,mastercard
91066 Continental Avenue,Baton Rouge,Louisiana,70810,225-350-0764,5108753757187368,mastercard
9645 Leroy Place,Boston,Massachusetts,02203,617-415-2232,5048370704564731,mastercard
97108 Sage Street,Oklahoma City,Oklahoma,73190,405-652-2639,5108754930529674,mastercard
608 7th Alley,North Hollywood,California,91616,213-298-0234,5048371792508812,mastercard
56514 3rd Alley,Denver,Colorado,80262,303-943-7422,5048374773127313,mastercard
78813 Porter Hill,Rochester,New York,14604,585-541-5077,5048373881724185,mastercard
78 Vermont Parkway,El Paso,Texas,79916,915-840-5826,5108753433709171,mastercard
74524 Warner Terrace,Buffalo,New York,14225,716-329-7761,5108757108732343,mastercard
07 2nd Court,Houston,Texas,77255,713-496-0140,5108753733549210,mastercard
07 Ridge Oak Park,Seattle,Washington,98148,206-189-4813,5108759745453119,mastercard
6690 Fairview Center,Kansas City,Missouri,64153,816-315-4149,5048378765630556,mastercard
86 Barnett Hill,Augusta,Georgia,30911,706-317-9479,5048379966946916,mastercard
6569 Magdeline Point,Portland,Oregon,97271,971-884-4371,5108754360645966,mastercard
42 Mariners Cove Avenue,Pittsburgh,Pennsylvania,15240,412-763-3015,5048373551468477,mastercard
0 Blackbird Avenue,Fort Lauderdale,Florida,33330,954-429-1170,5108754088148905,mastercard
05737 Grasskamp Circle,Chicago,Illinois,60681,312-342-9478,5108757610678489,mastercard
776 Glendale Avenue,Pittsburgh,Pennsylvania,15279,412-976-1755,5048378071139896,mastercard
3485 Maple Wood Park,Topeka,Kansas,66642,785-392-9200,5108757389613881,mastercard
07 Hayes Way,Waterbury,Connecticut,06705,203-541-1336,5048371322018688,mastercard
8 Moland Court,Richmond,Virginia,23208,804-921-0063,5108758323438906,mastercard
5398 Manitowish Hill,Tampa,Florida,33673,813-792-1774,5108759162533344,mastercard
0870 Bonner Street,Newark,New Jersey,07188,862-934-9200,5108750430147082,mastercard
85 Southridge Trail,Indianapolis,Indiana,46226,317-725-7683,5048373725673713,mastercard
405 Milwaukee Circle,New Orleans,Louisiana,70179,504-437-4004,5048374141054736,mastercard
02690 Alpine Pass,Philadelphia,Pennsylvania,19115,267-898-2673,5108753410799799,mastercard
53462 Jay Terrace,Wilkes Barre,Pennsylvania,18768,570-837-3962,5108758237177863,mastercard
5 Cherokee Junction,Richmond,Virginia,23260,804-399-6273,5108752607615651,mastercard
429 Spohn Park,San Francisco,California,94126,415-796-1351,5048378435683886,mastercard
474 Meadow Vale Point,Sioux Falls,South Dakota,57110,605-342-8460,5048377953969404,mastercard
83 Riverside Alley,Fort Wayne,Indiana,46805,260-385-5133,5108754029917574,mastercard
96 Sugar Way,Washington,District of Columbia,20535,202-604-9487,5048373899872489,mastercard
1 Park Meadow Drive,Pittsburgh,Pennsylvania,15279,412-696-4215,5108753770119752,mastercard
46725 Rutledge Crossing,Topeka,Kansas,66617,785-500-5619,5048370245570445,mastercard
3 Amoth Trail,Santa Barbara,California,93106,805-797-9404,5048377858913804,mastercard
3246 Eggendart Parkway,Gilbert,Arizona,85297,602-646-2150,5108758948691897,mastercard
6448 Oriole Point,Scottsdale,Arizona,85260,602-468-9687,5108750758170179,mastercard
778 Petterle Place,Huntington,West Virginia,25726,304-701-8247,5048372045730914,mastercard
23 Vermont Parkway,Greeley,Colorado,80638,970-243-5555,5108754981626833,mastercard
535 Mcguire Road,Mobile,Alabama,36670,251-446-0273,5108759134474585,mastercard
9184 Merrick Trail,Springfield,Illinois,62756,217-881-1890,5108750982674319,mastercard
12 Brentwood Hill,San Diego,California,92176,619-598-1738,5048377733625623,mastercard
72 Colorado Terrace,Tampa,Florida,33610,813-773-5817,5108756552773167,mastercard
9773 Division Crossing,Albuquerque,New Mexico,87201,505-152-8867,5108758750572250,mastercard
5 Delaware Place,Rochester,New York,14624,585-683-0005,5108758425658989,mastercard
4 Dixon Avenue,Richmond,Virginia,23225,757-962-6581,5108755901523059,mastercard
867 Red Cloud Way,Harrisburg,Pennsylvania,17121,717-602-1080,5108755284046850,mastercard
58 Montana Park,Colorado Springs,Colorado,80920,719-873-5114,5108754850316177,mastercard
9 Stuart Way,Miami,Florida,33261,305-564-8657,5048374604338147,mastercard
401 Summit Park,Baltimore,Maryland,21203,410-627-3627,5108758901357585,mastercard
0735 Shopko Pass,Birmingham,Alabama,35285,205-276-1123,5048375944384592,mastercard
10474 Evergreen Point,Yakima,Washington,98907,509-185-9211,5048378645985832,mastercard
4542 Park Meadow Place,Orange,California,92862,714-539-5504,5108752025550100,mastercard
1 Green Point,Fullerton,California,92835,714-668-9342,5108750770186948,mastercard
464 Fremont Street,Charlotte,North Carolina,28247,704-478-0285,5108759839069532,mastercard
8 Cherokee Trail,East Saint Louis,Illinois,62205,618-334-5791,5108756869997285,mastercard
1504 Packers Drive,Charleston,West Virginia,25356,304-629-3017,5108756949304452,mastercard
2 Golf View Drive,Green Bay,Wisconsin,54305,920-377-5106,5048373263858098,mastercard
8 Continental Lane,Visalia,California,93291,559-721-1251,5108750557485588,mastercard
09 Hanson Lane,Spokane,Washington,99260,509-456-3642,5048373282034861,mastercard
0 Old Gate Lane,Lexington,Kentucky,40591,859-565-3359,5048372964792291,mastercard
715 Shoshone Trail,Syracuse,New York,13251,315-397-3858,5108753931186823,mastercard
14980 Jenifer Point,Washington,District of Columbia,20260,202-348-1846,5108756378984493,mastercard
558 Scott Center,Columbia,South Carolina,29220,803-960-3706,5108757430442215,mastercard
7 Swallow Parkway,Austin,Texas,78759,512-798-8907,5108758678163042,mastercard
93 Springview Alley,Baltimore,Maryland,21229,443-100-3081,5108755272524751,mastercard
98 Memorial Junction,El Paso,Texas,79950,915-635-5003,5048371126961976,mastercard
491 Oak Terrace,Chicago,Illinois,60686,312-996-2463,5108755529114901,mastercard
769 Barnett Junction,Las Vegas,Nevada,89135,702-572-0758,5048378192064171,mastercard
2163 Farmco Pass,South Lake Tahoe,California,96154,530-120-8546,5108755321697160,mastercard
735 Marquette Park,Las Vegas,Nevada,89155,702-190-5660,5048376475558976,mastercard
31 Eastlawn Avenue,Springfield,Massachusetts,01105,413-912-8464,5108754800189674,mastercard
3 Ryan Crossing,Hot Springs National Park,Arkansas,71914,501-266-2863,5108752729955399,mastercard
790 Rigney Park,Saint Augustine,Florida,32092,904-502-1046,5108758704408700,mastercard
76768 Shoshone Terrace,Utica,New York,13505,315-556-4778,5048379716162707,mastercard
9020 Anderson Road,Louisville,Kentucky,40280,502-980-0297,5108755197657397,mastercard
084 Trailsway Way,Norfolk,Virginia,23509,757-811-7434,5108750651105173,mastercard
37617 Hayes Lane,Des Moines,Iowa,50981,515-608-7936,5108753454070198,mastercard
9 Lakewood Gardens Trail,Huntsville,Alabama,35815,256-480-9725,5048373817001054,mastercard
09 Kings Alley,Atlanta,Georgia,30343,404-718-7621,5108759002616069,mastercard
62 Meadow Valley Circle,Topeka,Kansas,66617,785-360-2197,5048373172374856,mastercard
63 Continental Terrace,Warren,Michigan,48092,810-239-7401,5048376535166349,mastercard
222 Truax Junction,Memphis,Tennessee,38114,901-536-2954,5048373368995274,mastercard
48095 Florence Pass,Greensboro,North Carolina,27404,336-802-5866,5108752177386956,mastercard
4 Spaight Place,Milwaukee,Wisconsin,53277,414-530-0840,5048378058080550,mastercard
60 Corscot Road,Memphis,Tennessee,38188,901-116-7658,5108752907042259,mastercard
24108 Amoth Junction,Glendale,California,91210,818-192-5108,5108754768718233,mastercard
06 Stuart Park,Honolulu,Hawaii,96805,808-425-8658,5108750498920396,mastercard
8059 Village Green Drive,Tampa,Florida,33680,813-837-4919,5108750997542816,mastercard
49224 Ryan Junction,Everett,Washington,98206,425-585-9133,5048371885609279,mastercard
31324 Waubesa Court,Louisville,Kentucky,40250,502-222-0537,5108759180324197,mastercard
0379 Elka Court,Charleston,West Virginia,25331,304-752-5849,5048372765871062,mastercard
329 Chinook Plaza,Indianapolis,Indiana,46278,317-487-6923,5108757496503348,mastercard
2 Transport Road,Bloomington,Illinois,61709,309-390-3918,5108756199747616,mastercard
03899 Memorial Crossing,North Las Vegas,Nevada,89036,702-822-4394,5108755288964074,mastercard
555 Autumn Leaf Pass,New York City,New York,10131,212-479-5006,5048370132337270,mastercard
6 Corscot Road,Kalamazoo,Michigan,49048,269-580-5924,5048371097730111,mastercard
6 Di Loreto Hill,Savannah,Georgia,31422,912-751-5098,5108755770055217,mastercard
2165 Londonderry Drive,Knoxville,Tennessee,37995,865-596-9874,5108757004053067,mastercard
47 Delladonna Point,Bakersfield,California,93399,661-313-5813,5108758959232391,mastercard
42 Basil Street,Fort Lauderdale,Florida,33325,954-948-1148,5048374092437989,mastercard
85 Old Gate Pass,Jamaica,New York,11431,212-555-2585,5108754985528902,mastercard
43399 Shelley Parkway,Nashville,Tennessee,37228,615-994-0122,5048373481086373,mastercard
5589 Crowley Pass,Cleveland,Ohio,44177,440-313-0379,5108758400509728,mastercard
8424 Utah Place,Tyler,Texas,75799,903-361-6905,5048371683082216,mastercard
69359 Continental Alley,North Port,Florida,34290,941-307-2084,5048370411108285,mastercard
711 Oak Trail,New Haven,Connecticut,06520,203-907-2030,5048378395340063,mastercard
622 American Ash Parkway,Charlotte,North Carolina,28215,704-103-6025,5108757000035662,mastercard
31 Kedzie Court,Hartford,Connecticut,06145,860-640-8185,5048376077743265,mastercard
30 Garrison Parkway,Indianapolis,Indiana,46254,317-961-9989,5048372952062970,mastercard
6 Eastwood Center,Milwaukee,Wisconsin,53220,414-876-4841,5108759487189962,mastercard
7161 Shoshone Circle,Salt Lake City,Utah,84115,801-882-4578,5108759281267907,mastercard
5155 School Way,Philadelphia,Pennsylvania,19093,215-228-7818,5108753354728317,mastercard
702 Hintze Hill,Orlando,Florida,32813,321-662-8260,5108752005078650,mastercard
241 Havey Crossing,Odessa,Texas,79764,432-581-3648,5108757719654407,mastercard
810 Glendale Place,Tampa,Florida,33610,813-698-4812,5048374630454165,mastercard
4 Helena Place,Santa Clara,California,95054,831-288-2676,5048377732406850,mastercard
0 Lyons Hill,Irvine,California,92717,714-277-1090,5108751668962812,mastercard
0577 Granby Lane,Fort Wayne,Indiana,46852,260-840-9799,5048372549266274,mastercard
94708 Carey Lane,Lynn,Massachusetts,01905,339-469-7038,5108755476190011,mastercard
146 Schlimgen Parkway,Kansas City,Missouri,64142,816-122-1924,5108757122743664,mastercard
09605 Russell Pass,San Francisco,California,94121,415-687-1654,5108758639826943,mastercard
841 Bartelt Parkway,Fresno,California,93740,559-554-7086,5048376022604273,mastercard
817 Thierer Hill,Round Rock,Texas,78682,512-562-6045,5048379336196382,mastercard
190 Forster Street,Phoenix,Arizona,85025,623-215-2031,5048377614433659,mastercard
26936 Susan Terrace,Los Angeles,California,90040,626-867-3878,5048377917912904,mastercard
73 Sheridan Road,Bryan,Texas,77806,979-270-1261,5048378791969788,mastercard
4170 Acker Park,New Hyde Park,New York,11044,516-300-7204,5108752861001416,mastercard
042 Blue Bill Park Parkway,Miami,Florida,33111,786-859-0355,5048378295597325,mastercard
23813 Farragut Plaza,Huntington,West Virginia,25709,304-323-1506,5108757291046477,mastercard
42044 Oxford Plaza,Bethesda,Maryland,20816,240-556-6246,5108755367867206,mastercard
3 Eastlawn Trail,Fresno,California,93715,559-737-3329,5108752289459428,mastercard
8997 Oxford Circle,Great Neck,New York,11024,516-299-7508,5048372773141342,mastercard
1 Tennyson Junction,Phoenix,Arizona,85020,623-196-4232,5108752072434430,mastercard
304 Park Meadow Lane,El Paso,Texas,79940,915-171-3840,5108756278395204,mastercard
2752 Warner Trail,Los Angeles,California,90030,213-722-5372,5108754303888392,mastercard
3281 Monica Way,Washington,District of Columbia,20057,202-624-3535,5108759972405717,mastercard
75141 Londonderry Court,Decatur,Georgia,30089,404-752-6296,5108758261418019,mastercard
9572 Merchant Junction,Saint Paul,Minnesota,55127,612-930-0844,5048370994720068,mastercard
432 Memorial Terrace,Hartford,Connecticut,06145,860-308-3065,5108752252659905,mastercard
28987 Blaine Lane,Washington,District of Columbia,20456,202-971-4495,5108758843666051,mastercard
2806 Declaration Drive,Peoria,Illinois,61614,309-927-2532,5108755095663695,mastercard
40143 Summer Ridge Pass,Louisville,Kentucky,40225,502-715-5860,5108756697775598,mastercard
0 Village Green Alley,Young America,Minnesota,55551,952-813-2034,5048378987950725,mastercard
6430 Autumn Leaf Trail,Houston,Texas,77228,713-628-8933,5108755916610545,mastercard
709 Morning Way,Boca Raton,Florida,33432,561-836-1017,5108750546926536,mastercard
6 Summerview Road,Muskegon,Michigan,49444,231-338-9383,5048371168869004,mastercard
9 Novick Crossing,El Paso,Texas,88530,915-650-7697,5048374329259420,mastercard
14274 Crest Line Lane,San Diego,California,92191,619-673-7534,5048370095925384,mastercard
93 Boyd Terrace,Louisville,Kentucky,40250,502-774-2923,5048377197450781,mastercard
64275 Crescent Oaks Way,Arlington,Texas,76011,214-942-0243,5108755611579847,mastercard
4 Utah Parkway,Gary,Indiana,46406,219-488-1280,5108755284595138,mastercard
0604 Buhler Hill,New Haven,Connecticut,06520,203-701-4370,5048377820142508,mastercard
996 Sage Pass,Kent,Washington,98042,360-410-2822,5048375307031830,mastercard
7 Ludington Avenue,Austin,Texas,78754,512-534-1454,5048373596784136,mastercard
8643 Washington Hill,Washington,District of Columbia,20508,202-725-8153,5108759177588440,mastercard
5 Hauk Center,Jacksonville,Florida,32204,904-387-4779,5048373783484425,mastercard
46997 Havey Way,Huntington,West Virginia,25770,304-331-6748,5108753019295173,mastercard
57 Mockingbird Plaza,Ridgely,Maryland,21684,410-932-3219,5108756947718810,mastercard
8206 Quincy Avenue,Atlanta,Georgia,31119,770-892-3338,5108759048408844,mastercard
51 Old Shore Pass,Englewood,Colorado,80150,303-969-9836,5108752523876635,mastercard
84 Duke Place,San Jose,California,95173,408-698-2216,5048370172235897,mastercard
1502 Mitchell Plaza,Chicago,Illinois,60697,312-279-0133,5108755201164372,mastercard
7505 Morning Terrace,Oklahoma City,Oklahoma,73104,405-612-1497,5108754005870870,mastercard
85192 Rutledge Center,Whittier,California,90610,562-478-8328,5048374710080443,mastercard
90442 Nobel Plaza,Roanoke,Virginia,24024,540-785-2373,5048372471682563,mastercard
44231 Sherman Plaza,El Paso,Texas,79940,915-723-9217,5048372738903729,mastercard
0445 Sullivan Plaza,Fresno,California,93704,559-950-8134,5048378468586469,mastercard
0966 Mockingbird Street,Gaithersburg,Maryland,20883,240-182-8488,5108751702932425,mastercard
8210 Surrey Parkway,Largo,Florida,33777,727-460-1089,5108756042861754,mastercard
0 Ludington Parkway,Anniston,Alabama,36205,256-780-1070,5048378891027453,mastercard
922 Vidon Alley,Terre Haute,Indiana,47805,812-147-3753,5048375749497516,mastercard
988 Vidon Lane,El Paso,Texas,79955,915-284-3111,5048371118288610,mastercard
8 Quincy Center,Kingsport,Tennessee,37665,423-312-5729,5108759365534636,mastercard
62 Fordem Lane,Harrisburg,Pennsylvania,17140,717-668-6286,5108754130569249,mastercard
7 Sachtjen Avenue,Boston,Massachusetts,02114,617-512-3533,5108754138221298,mastercard
1 Anthes Terrace,Des Moines,Iowa,50981,515-630-3933,5108759417241008,mastercard
6249 Anniversary Street,Colorado Springs,Colorado,80930,719-668-9586,5108751641931470,mastercard
2527 Holy Cross Trail,Chicago,Illinois,60636,312-952-0712,5048377493125335,mastercard
97 West Avenue,Charlotte,North Carolina,28284,704-597-7929,5048376616697212,mastercard
63 Schmedeman Court,Houston,Texas,77010,713-107-0440,5108750752609545,mastercard
27 Green Road,Glendale,California,91205,818-203-7675,5048377121969310,mastercard
4659 Roxbury Drive,Washington,District of Columbia,20525,202-950-5479,5108755462366872,mastercard
20550 Daystar Street,Oklahoma City,Oklahoma,73124,405-276-6062,5108751472969185,mastercard
16 Prentice Crossing,Cedar Rapids,Iowa,52405,319-188-6869,5108759952915438,mastercard
650 Cascade Center,Chattanooga,Tennessee,37405,423-705-7077,5048370866416910,mastercard
7790 Pepper Wood Drive,Mountain View,California,94042,650-534-2816,5108759363602112,mastercard
2 Stuart Plaza,Mobile,Alabama,36622,251-531-7581,5048374431920745,mastercard
3 Kenwood Plaza,El Paso,Texas,79994,915-167-0909,5048375771345294,mastercard
34 Victoria Alley,Providence,Rhode Island,02905,401-897-3937,5108756342997142,mastercard
48830 Grim Street,Van Nuys,California,91411,323-813-9983,5048371874771536,mastercard
16 Cherokee Avenue,Fairfield,Connecticut,06825,203-434-5149,5048374948956273,mastercard
74809 Express Drive,Miami Beach,Florida,33141,305-190-0064,5108759249145575,mastercard
68811 Doe Crossing Parkway,Lancaster,Pennsylvania,17622,717-492-7376,5108755400956081,mastercard
4 Fallview Plaza,Washington,District of Columbia,56944,202-854-6130,5108755631523288,mastercard
46 Pleasure Pass,Boise,Idaho,83732,208-798-2209,5108757448508676,mastercard
107 Truax Road,Waltham,Massachusetts,02453,781-851-8220,5108751182284651,mastercard
2 Oak Valley Avenue,Salt Lake City,Utah,84189,801-496-1675,5048379013568523,mastercard
18 Hermina Hill,Oklahoma City,Oklahoma,73104,405-517-8733,5108751919758423,mastercard
833 Holmberg Court,Boynton Beach,Florida,33436,561-397-8725,5048374283886895,mastercard
59 Old Shore Street,Sacramento,California,95818,916-272-6263,5108758032205604,mastercard
9959 Myrtle Terrace,Anaheim,California,92825,714-602-8704,5108755456214229,mastercard
3655 Leroy Way,Nashville,Tennessee,37215,615-728-3799,5048376955325839,mastercard
90003 Cardinal Circle,El Paso,Texas,79955,915-238-3956,5108757528045300,mastercard
7 Heffernan Way,Houston,Texas,77206,713-606-1710,5048374482939396,mastercard
0423 Lillian Place,Des Moines,Iowa,50981,515-392-4093,5108752760603528,mastercard
478 Becker Alley,Detroit,Michigan,48211,734-892-6098,5108754985124470,mastercard
68180 Arizona Lane,Anaheim,California,92805,562-937-4482,5108757712830889,mastercard
05922 Oak Drive,Milwaukee,Wisconsin,53220,414-464-9465,5108751219110176,mastercard
02721 Kedzie Drive,Austin,Texas,78744,361-403-1600,5048376459142581,mastercard
52841 Fair Oaks Trail,Lake Charles,Louisiana,70616,337-558-2366,5108751433453436,mastercard
3 Lyons Crossing,Mesquite,Texas,75185,214-288-6366,5108756274868576,mastercard
72 Blackbird Pass,Zephyrhills,Florida,33543,813-361-8669,5048370344874284,mastercard
69779 Sloan Lane,Redwood City,California,94064,650-981-6966,5108759803837468,mastercard
3318 Victoria Crossing,San Jose,California,95108,408-384-3523,5048373764556027,mastercard
392 Granby Court,Canton,Ohio,44705,330-726-3135,5048373515144842,mastercard
6518 Fuller Street,Cincinnati,Ohio,45228,513-266-7185,5048379780263043,mastercard
61976 Elmside Road,Washington,District of Columbia,20099,202-259-0792,5108755757821409,mastercard
2735 Springview Way,Danbury,Connecticut,06816,203-846-6310,5048379996445673,mastercard
379 Raven Road,Atlanta,Georgia,30311,678-691-4920,5108758591210375,mastercard
713 Anhalt Point,Austin,Texas,78726,512-894-7755,5048375935749159,mastercard
4 Sheridan Drive,Baton Rouge,Louisiana,70826,225-381-8396,5048374589631235,mastercard
4281 Vidon Plaza,Santa Ana,California,92725,714-864-4315,5108752992574844,mastercard
31713 Steensland Court,Dayton,Ohio,45426,937-852-5126,5108750131872772,mastercard
43474 Shopko Lane,Toledo,Ohio,43605,419-968-1749,5048370926862467,mastercard
4 Ludington Terrace,Wilmington,Delaware,19810,302-113-5971,5048372890686286,mastercard
8 Lakeland Junction,Tampa,Florida,33605,813-823-3462,5108754462520174,mastercard
83 Birchwood Parkway,Montgomery,Alabama,36195,334-326-3640,5108759841024822,mastercard
49245 Reindahl Place,Philadelphia,Pennsylvania,19191,215-186-9589,5048377848267675,mastercard
4984 Gina Plaza,Washington,District of Columbia,20397,202-926-9313,5108754875254577,mastercard
64206 Carey Road,West Palm Beach,Florida,33411,561-938-1825,5048372701596021,mastercard
3348 Dunning Crossing,Rochester,New York,14624,585-777-1745,5048379103952355,mastercard
8 Schiller Point,Memphis,Tennessee,38181,901-842-4579,5048376521611910,mastercard
9101 Lakewood Gardens Point,Huntington,West Virginia,25709,304-402-6543,5048374162121836,mastercard
24833 Logan Alley,Flushing,New York,11355,718-403-9328,5048378403087946,mastercard
74 Express Hill,Tulsa,Oklahoma,74184,918-197-6348,5108758261775038,mastercard
18013 Warrior Pass,Waterbury,Connecticut,06726,203-497-6885,5108754301239713,mastercard
90 Mesta Way,Houston,Texas,77212,713-941-2775,5108756910689642,mastercard
61653 Roxbury Avenue,Seattle,Washington,98185,206-981-8877,5048376362546381,mastercard
9083 Rieder Lane,Houston,Texas,77060,832-134-8745,5048370138827357,mastercard
953 Park Meadow Parkway,Indianapolis,Indiana,46216,317-569-8922,5108750505349738,mastercard
7345 Golf Course Hill,Decatur,Illinois,62525,217-299-8305,5108758313447750,mastercard
09014 Sycamore Avenue,Los Angeles,California,90071,424-466-3619,5048371168631008,mastercard
050 Spenser Park,Dayton,Ohio,45419,937-411-9789,5108759202384385,mastercard
34391 Muir Circle,Gatesville,Texas,76598,254-738-6039,5108758805647396,mastercard
00316 Hoffman Court,Cincinnati,Ohio,45208,513-894-4738,5108751396159095,mastercard
6393 Buena Vista Court,Helena,Montana,59623,406-344-2690,5048375909751934,mastercard
4039 Dwight Park,Santa Clara,California,95054,858-893-3452,5108753203758838,mastercard
2980 Morning Lane,Greensboro,North Carolina,27409,336-942-8174,5048377105113315,mastercard
921 Moulton Trail,Sacramento,California,95852,916-557-4154,5048377549171978,mastercard
86007 Oak Plaza,Los Angeles,California,90050,213-586-3409,5108753319342105,mastercard
32 Delladonna Drive,Los Angeles,California,90035,213-866-7750,5108753861001273,mastercard
878 Lien Plaza,Joliet,Illinois,60435,815-985-0544,5048378662795536,mastercard
6 Vera Place,Raleigh,North Carolina,27690,919-873-8405,5048376646186426,mastercard
41334 Sundown Road,Stamford,Connecticut,06905,203-261-7792,5048374708734399,mastercard
59898 Rigney Place,Columbia,South Carolina,29203,803-230-6439,5108758203022341,mastercard
1 Merry Alley,Houston,Texas,77281,713-635-3502,5048377784666625,mastercard
3 Golf Road,Alhambra,California,91841,626-707-7001,5048375235370870,mastercard
015 Grasskamp Junction,Midland,Michigan,48670,989-525-5599,5108758228599000,mastercard
3446 Grasskamp Circle,Orlando,Florida,32854,407-939-0487,5048373551662061,mastercard
01 Ohio Junction,Cincinnati,Ohio,45264,513-277-6146,5048378632177617,mastercard
889 Elka Road,Inglewood,California,90398,310-772-1121,5108756474733794,mastercard
403 Fisk Junction,Fresno,California,93750,559-473-6222,5108755617328454,mastercard
4 Anderson Park,Berkeley,California,94705,510-346-4494,5108759538008443,mastercard
5 Graceland Point,Levittown,Pennsylvania,19058,267-572-9190,5108756235314967,mastercard
2733 Thierer Place,San Francisco,California,94105,415-299-5024,5048379463657594,mastercard
92967 Duke Alley,Portsmouth,Virginia,23705,757-245-1315,5108751804633657,mastercard
327 Oakridge Plaza,Wichita,Kansas,67236,316-292-4630,5108759894602557,mastercard
29549 Gerald Terrace,Palmdale,California,93591,661-144-1628,5048371664702022,mastercard
64 Union Park,Memphis,Tennessee,38188,901-528-6040,5108750082763202,mastercard
24 Lighthouse Bay Park,Santa Fe,New Mexico,87592,505-773-7967,5048372321804219,mastercard
79 Fairfield Center,Des Moines,Iowa,50369,515-876-8950,5048375374546306,mastercard
393 Monica Way,Carlsbad,California,92013,760-947-7272,5048371512693894,mastercard
839 Marquette Way,Philadelphia,Pennsylvania,19104,215-713-0888,5048372156730950,mastercard
161 La Follette Parkway,Spokane,Washington,99215,509-470-7699,5048370268102670,mastercard
3186 4th Hill,Harrisburg,Pennsylvania,17126,717-354-5260,5108756159193876,mastercard
63728 Glacier Hill Pass,Kansas City,Missouri,64179,816-452-5931,5108752146354986,mastercard
87 Scofield Drive,Stamford,Connecticut,06912,203-929-7980,5108752020905127,mastercard
6190 Corry Drive,Wilmington,Delaware,19886,302-789-2943,5048372384929440,mastercard
37161 Westerfield Court,El Paso,Texas,79905,915-585-5107,5108754515044909,mastercard
5337 Di Loreto Center,Lexington,Kentucky,40524,859-566-8954,5048374041869621,mastercard
0528 Bartillon Parkway,Los Angeles,California,90045,562-297-5470,5048370809008576,mastercard
2 Oriole Drive,Detroit,Michigan,48275,313-594-3330,5108752525624439,mastercard
3850 Ruskin Park,Waco,Texas,76711,254-226-5253,5108750112356878,mastercard
0 Sugar Trail,Reston,Virginia,22096,571-156-1797,5048375633687305,mastercard
9660 Upham Junction,Washington,District of Columbia,20420,202-844-0176,5048378135633066,mastercard
09746 Gulseth Crossing,Boise,Idaho,83716,208-186-4267,5108752414460259,mastercard
10857 Randy Drive,Brooklyn,New York,11220,718-405-5099,5108756391075501,mastercard
711 Shasta Way,Albuquerque,New Mexico,87110,505-123-9433,5048375324394948,mastercard
5400 Almo Lane,Oakland,California,94605,510-966-0745,5108754463935157,mastercard
38598 Atwood Hill,San Antonio,Texas,78240,210-985-1039,5108750131573842,mastercard
6006 Schiller Center,Rockville,Maryland,20851,301-700-7281,5048376411738278,mastercard
726 Mosinee Pass,Los Angeles,California,90094,323-558-7019,5048374117282121,mastercard
04 Gina Street,Albuquerque,New Mexico,87115,505-566-7179,5048379875765589,mastercard
8 Annamark Court,El Paso,Texas,88519,915-510-0221,5108759022124714,mastercard
939 Barnett Street,Portland,Oregon,97229,971-753-6181,5108755967471078,mastercard
29121 Dahle Road,El Paso,Texas,88541,915-313-4472,5108752012685372,mastercard
01 Sommers Center,Boca Raton,Florida,33487,561-255-6885,5048373698938952,mastercard
515 Russell Crossing,Salt Lake City,Utah,84115,801-521-9958,5048376931954801,mastercard
51 Kenwood Park,Santa Fe,New Mexico,87505,505-499-2934,5108752351471426,mastercard
13 Arrowood Road,El Paso,Texas,79977,915-443-8065,5048371016809590,mastercard
56326 Di Loreto Lane,Cincinnati,Ohio,45254,513-461-8579,5108758889314160,mastercard
767 Judy Circle,Gastonia,North Carolina,28055,704-263-4313,5048375637179598,mastercard
144 Golf Avenue,San Antonio,Texas,78230,830-336-1128,5108750739061802,mastercard
66877 Corscot Plaza,Santa Barbara,California,93111,805-871-0420,5048375971962922,mastercard
82 Saint Paul Terrace,Oklahoma City,Oklahoma,73197,405-619-2009,5108756354858521,mastercard
8547 Burning Wood Crossing,Spokane,Washington,99205,509-134-2391,5048370576992572,mastercard
90482 Sunbrook Park,Huntsville,Alabama,35895,256-983-0339,5048371794989846,mastercard
213 Esker Plaza,Amarillo,Texas,79182,806-771-5443,5048374756216927,mastercard
4686 Lillian Way,Kansas City,Missouri,64190,816-715-7149,5048370524162120,mastercard
23697 Dennis Hill,San Jose,California,95113,650-544-0586,5108754049111471,mastercard
71 Troy Pass,Jamaica,New York,11431,212-231-5979,5048375774023591,mastercard
52 Hazelcrest Street,Columbus,Georgia,31914,706-209-8956,5048371180200998,mastercard
03236 Thierer Parkway,Spartanburg,South Carolina,29319,864-753-8253,5048370984924829,mastercard
757 Dawn Lane,Lake Worth,Florida,33462,561-405-3227,5108754608863702,mastercard
749 Fulton Avenue,Richmond,Virginia,23228,804-883-0795,5108750712652726,mastercard
45 Springs Parkway,Salt Lake City,Utah,84152,801-113-0950,5108751494762782,mastercard
35355 Bellgrove Road,Houston,Texas,77040,713-175-9021,5048375561007757,mastercard
85083 Maywood Court,Las Vegas,Nevada,89160,702-204-6648,5108754234633750,mastercard
351 Porter Center,Sacramento,California,94237,916-687-8530,5108752984813200,mastercard
66796 Mallory Court,Jamaica,New York,11436,917-346-0344,5108752914637372,mastercard
88932 Tennyson Hill,Des Moines,Iowa,50305,515-426-6151,5048373635495439,mastercard
50090 Elmside Junction,Houston,Texas,77075,832-970-2226,5048375157643932,mastercard
1773 Shelley Parkway,San Antonio,Texas,78240,210-598-9818,5108753167322274,mastercard
34553 Thompson Parkway,Huntington Beach,California,92648,760-452-3611,5048377284086159,mastercard
4435 Arkansas Parkway,Newton,Massachusetts,02162,508-805-2992,5048375325494598,mastercard
75 Linden Park,Trenton,New Jersey,08619,609-692-5797,5048379762686039,mastercard
677 Muir Parkway,Jackson,Mississippi,39216,601-393-8963,5108755044481280,mastercard
10150 Washington Terrace,Largo,Florida,34643,727-486-4184,5048374315999997,mastercard
96747 Mesta Circle,Tulsa,Oklahoma,74149,918-932-2292,5108758712856858,mastercard
68100 Vera Crossing,Washington,District of Columbia,20392,202-236-4855,5048370339705238,mastercard
3 Bonner Center,Albany,New York,12247,518-747-0657,5108753891246724,mastercard
02752 Debra Drive,Omaha,Nebraska,68105,402-256-0062,5108750369271853,mastercard
5 Bashford Road,Decatur,Illinois,62525,217-121-2309,5108755542292122,mastercard
44971 Butternut Terrace,Chicago,Illinois,60663,312-322-5340,5108750064422926,mastercard
7 Ludington Street,Hicksville,New York,11854,516-982-4158,5048372755822802,mastercard
4 Hovde Terrace,Newport Beach,California,92662,714-307-6529,5048373610411112,mastercard
9 Glendale Avenue,Sioux City,Iowa,51105,712-602-2705,5048375606953437,mastercard
8 Manley Circle,Charlotte,North Carolina,28272,704-204-9971,5048370686548215,mastercard
6 Coleman Way,Inglewood,California,90305,323-255-1857,5048373558337709,mastercard
9196 Golf Point,Amarillo,Texas,79105,806-704-5538,5048376667925710,mastercard
521 Delaware Avenue,Dayton,Ohio,45454,937-196-2845,5048379497250127,mastercard
3884 Tennyson Street,Rochester,New York,14614,585-390-8796,5048372056118561,mastercard
1421 Village Green Pass,Charlotte,North Carolina,28242,704-594-5315,5048377057156387,mastercard
45 Eagle Crest Terrace,Washington,District of Columbia,20010,202-787-9373,5108752736849361,mastercard
696 Farragut Lane,Portsmouth,New Hampshire,03804,603-150-2665,5048370096929773,mastercard
9212 Green Court,Kansas City,Missouri,64190,816-702-7462,5048378473869405,mastercard
6 Marquette Court,San Diego,California,92170,619-283-8514,5048376457644406,mastercard
798 Colorado Place,Hartford,Connecticut,06120,860-898-0961,5048379942778250,mastercard
636 Pearson Trail,El Paso,Texas,88589,915-276-8230,5048376114525493,mastercard
558 Sherman Crossing,Shawnee Mission,Kansas,66220,913-500-7219,5108756665999311,mastercard
15169 Colorado Court,Long Beach,California,90810,323-595-5456,5108757254180289,mastercard
0 Old Shore Center,Oklahoma City,Oklahoma,73190,405-732-5307,5048374713548214,mastercard
3 Briar Crest Junction,Alexandria,Virginia,22301,703-136-4024,5048370970479564,mastercard
70 Farmco Terrace,Long Beach,California,90805,323-696-5860,5108751220481590,mastercard
4510 Gateway Court,Toledo,Ohio,43615,419-979-9991,5048370194365334,mastercard
2 Blue Bill Park Crossing,Harrisburg,Pennsylvania,17140,717-362-4062,5048376719406198,mastercard
7 Kenwood Way,Lima,Ohio,45807,419-151-9974,5048371081792135,mastercard
11542 Ridge Oak Center,Ocala,Florida,34479,352-908-7699,5048377271061827,mastercard
55749 Kropf Pass,Bridgeport,Connecticut,06606,203-650-6896,5108753315505499,mastercard
3 Granby Point,Oakland,California,94611,415-884-7412,5108758466200444,mastercard
4 Messerschmidt Crossing,Phoenix,Arizona,85053,602-950-3692,5048379713769413,mastercard
1 Lindbergh Drive,Los Angeles,California,90071,323-464-9082,5048376494167908,mastercard
96800 Waubesa Hill,Santa Cruz,California,95064,831-689-9788,5048371846158036,mastercard
69399 Annamark Point,Los Angeles,California,90025,323-281-3522,5108754212261707,mastercard
20420 Dakota Junction,Los Angeles,California,90094,323-840-0839,5108756593196774,mastercard
26 Spohn Place,Louisville,Kentucky,40250,502-634-9198,5108753962952366,mastercard
7 Washington Junction,Cambridge,Massachusetts,02142,617-234-0397,5048370140413964,mastercard
998 International Crossing,New Orleans,Louisiana,70174,504-602-1849,5048375238830920,mastercard
72 Comanche Drive,Des Moines,Iowa,50330,515-596-8209,5048378661580566,mastercard
8 Sage Park,Atlanta,Georgia,30343,404-299-1946,5048379224280892,mastercard
8 Ludington Drive,Kalamazoo,Michigan,49006,269-544-8574,5108753615105222,mastercard
309 Rieder Place,Saginaw,Michigan,48604,989-162-8760,5108753624810374,mastercard
5 Hollow Ridge Hill,Las Vegas,Nevada,89125,702-323-3553,5108754362670780,mastercard
79 Bunting Street,Kansas City,Kansas,66105,913-454-8358,5048377569100865,mastercard
00954 Bashford Parkway,San Antonio,Texas,78205,210-294-2147,5108757035783864,mastercard
26059 Fremont Road,New York City,New York,10115,212-335-7056,5108757029721821,mastercard
63 Jenifer Trail,Buffalo,New York,14225,716-239-8954,5048377548836795,mastercard
992 Westend Road,Albuquerque,New Mexico,87115,505-279-9495,5108752695607602,mastercard
32578 Green Ridge Park,Saint Petersburg,Florida,33715,727-333-1762,5108750840066427,mastercard
141 Hauk Place,San Diego,California,92115,619-412-1790,5108759604634460,mastercard
13546 Sloan Plaza,Albuquerque,New Mexico,87115,505-763-8754,5048379853295674,mastercard
764 Kings Junction,Conroe,Texas,77305,936-236-9927,5108751897989933,mastercard
06 Aberg Park,Shawnee Mission,Kansas,66205,913-162-9062,5048371499539169,mastercard
90226 Sherman Point,Honolulu,Hawaii,96825,808-626-1423,5048375378070865,mastercard
826 Corscot Terrace,Shawnee Mission,Kansas,66215,913-873-2057,5108757619171163,mastercard
085 Debs Alley,Virginia Beach,Virginia,23471,757-733-1181,5048377070048579,mastercard
53 Loomis Circle,Atlanta,Georgia,30316,770-724-1176,5108756242913082,mastercard
1943 Sunfield Pass,Louisville,Kentucky,40210,502-472-5016,5048371852331667,mastercard
85 Maryland Hill,Cheyenne,Wyoming,82007,307-309-5042,5048374623986363,mastercard
9959 Maple Wood Circle,Chattanooga,Tennessee,37410,423-869-8785,5108759855087335,mastercard
513 Stone Corner Crossing,San Diego,California,92137,619-516-7789,5108757834610839,mastercard
9 Truax Crossing,Cleveland,Ohio,44177,216-651-5918,5108754475185221,mastercard
74 Stoughton Road,Milwaukee,Wisconsin,53263,414-162-7081,5048376853491865,mastercard
597 Spenser Place,Denver,Colorado,80223,720-403-7850,5048377013151720,mastercard
5 New Castle Circle,Lancaster,Pennsylvania,17622,717-441-2134,5108751005234545,mastercard
3974 Sunbrook Park,Roanoke,Virginia,24004,540-959-9759,5108751840169765,mastercard
22667 Thierer Court,San Jose,California,95155,408-805-3802,5048373047233337,mastercard
10 Dexter Trail,Fresno,California,93773,559-333-4354,5108757205195865,mastercard
1108 7th Parkway,Sacramento,California,94237,916-948-5950,5048379781064903,mastercard
1721 Kings Center,New York City,New York,10292,212-313-9985,5108756080139469,mastercard
5 8th Point,Portland,Oregon,97286,503-535-3122,5108751557988464,mastercard
1198 Chive Place,Phoenix,Arizona,85030,602-488-6827,5048372339409308,mastercard
879 Vermont Center,Houston,Texas,77281,713-648-1113,5048370196830483,mastercard
5450 Petterle Park,Lincoln,Nebraska,68531,402-151-5296,5108757555980684,mastercard
3287 Lunder Pass,Fort Worth,Texas,76121,817-176-0181,5048375026765502,mastercard
46 Onsgard Center,Colorado Springs,Colorado,80935,719-193-2906,5108752080806298,mastercard
6 Shopko Court,Oklahoma City,Oklahoma,73173,405-337-6017,5048374325155572,mastercard
1778 Judy Hill,Houston,Texas,77010,281-924-8191,5048377131015146,mastercard
1096 Onsgard Trail,San Jose,California,95160,408-135-4457,5108759651707714,mastercard
13827 Packers Avenue,Austin,Texas,78726,512-879-2031,5108755668679698,mastercard
89 Kim Road,Joliet,Illinois,60435,815-968-4710,5108756971572661,mastercard
9 Maple Wood Road,Madison,Wisconsin,53716,608-906-8548,5048379004229903,mastercard
00011 Pankratz Avenue,Houston,Texas,77218,713-814-0441,5048373156956983,mastercard
689 Melvin Plaza,Bridgeport,Connecticut,06673,203-522-7301,5048374759198916,mastercard
07 Londonderry Pass,Little Rock,Arkansas,72222,501-192-9535,5048372262369578,mastercard
682 Hoard Crossing,Durham,North Carolina,27705,434-339-2729,5048370913148839,mastercard
995 Londonderry Avenue,Charleston,West Virginia,25321,304-840-1119,5048379652288227,mastercard
9998 Marcy Terrace,Dayton,Ohio,45440,937-277-7469,5048374509933760,mastercard
961 Artisan Plaza,Bridgeport,Connecticut,06606,203-963-2346,5108756032798115,mastercard
2500 Springs Road,Houston,Texas,77030,832-376-6204,5108753608093047,mastercard
8 Aberg Plaza,Torrance,California,90505,310-617-8008,5048372997194184,mastercard
4579 Veith Lane,Pensacola,Florida,32511,850-530-7627,5048376323658093,mastercard
471 Ryan Point,Wilkes Barre,Pennsylvania,18763,570-803-4906,5048375628711714,mastercard
820 Dryden Way,Cincinnati,Ohio,45249,513-230-8666,5108750686664228,mastercard
982 Chive Avenue,Huntsville,Alabama,35805,256-382-8184,5108750400405858,mastercard
9 Miller Plaza,Tallahassee,Florida,32309,850-887-9781,5108756989371528,mastercard
79305 Jackson Alley,Corpus Christi,Texas,78475,361-951-9505,5108751304499047,mastercard
89568 Brentwood Terrace,Salt Lake City,Utah,84105,435-174-5637,5108755342856928,mastercard
495 Arapahoe Street,Buffalo,New York,14205,716-512-9755,5048373640833624,mastercard
0154 Pankratz Circle,Durham,North Carolina,27710,919-540-9802,5108754903586495,mastercard
6388 Corscot Road,Las Vegas,Nevada,89193,702-162-3422,5048373374655920,mastercard
4611 Express Alley,Rochester,New York,14614,315-662-0205,5048379897800844,mastercard
6 Meadow Valley Court,El Paso,Texas,79911,915-792-2200,5048374792396303,mastercard
26 Sugar Parkway,Houston,Texas,77005,281-218-7689,5108757606190226,mastercard
73347 Roth Drive,Santa Clara,California,95054,949-670-6727,5108759074404006,mastercard
9 New Castle Parkway,Santa Barbara,California,93106,805-337-8078,5048379270100531,mastercard
01 Anniversary Parkway,Dulles,Virginia,20189,571-612-1364,5048370041143702,mastercard
6 Bunting Hill,Charlotte,North Carolina,28278,704-332-6537,5108754160084432,mastercard
3567 Karstens Road,Fresno,California,93786,559-752-8248,5048373756888438,mastercard
37877 Forest Run Alley,Cincinnati,Ohio,45233,513-676-8602,5108752707451817,mastercard
0 Sullivan Drive,Des Moines,Iowa,50310,515-418-2493,5108759341878834,mastercard
35249 Twin Pines Road,Englewood,Colorado,80150,303-123-8990,5108753342027343,mastercard
0379 Brown Parkway,Hattiesburg,Mississippi,39404,601-629-3075,5048378524708586,mastercard
4 Main Plaza,New York City,New York,10203,212-667-3466,5108759998801006,mastercard
823 Ilene Circle,Brea,California,92822,818-157-2493,5048373143702680,mastercard
4459 Forest Place,Lubbock,Texas,79415,806-106-0131,5048371463160612,mastercard
7486 Garrison Place,Saint Louis,Missouri,63110,314-887-3819,5048373613166614,mastercard
6108 Springview Road,Ogden,Utah,84403,801-407-9837,5108754092445313,mastercard
05 Victoria Street,Newark,Delaware,19714,302-681-1430,5108755299612647,mastercard
011 Harbort Trail,Nashville,Tennessee,37250,615-100-1757,5108755024930355,mastercard
975 Maple Junction,Baton Rouge,Louisiana,70815,225-671-4567,5108751604442820,mastercard
3 Weeping Birch Lane,Irving,Texas,75037,214-249-0303,5108750704694728,mastercard
93 Boyd Plaza,New York City,New York,10004,516-546-0094,5048376435814279,mastercard
89806 Carey Street,Fort Smith,Arkansas,72905,479-469-9386,5108757501691666,mastercard
2647 Dorton Street,Tucson,Arizona,85748,520-847-0489,5048375515311842,mastercard
8633 Declaration Way,Trenton,New Jersey,08650,609-465-1300,5048375073666959,mastercard
57 School Parkway,Pinellas Park,Florida,34665,850-937-7051,5108753197983533,mastercard
44 Spohn Plaza,Hattiesburg,Mississippi,39404,601-137-0201,5108752131333490,mastercard
194 Hoard Circle,Erie,Pennsylvania,16565,814-198-8460,5048376092722724,mastercard
73 Ridgeview Hill,Bradenton,Florida,34205,941-303-2888,5108750623654118,mastercard
44 Redwing Park,Mobile,Alabama,36622,251-475-6284,5108758390375155,mastercard
07632 Meadow Vale Drive,Dallas,Texas,75265,214-901-3389,5108755448790955,mastercard
36 Talmadge Center,Austin,Texas,78737,512-362-4073,5108756810094307,mastercard
776 Crowley Circle,Atlanta,Georgia,31165,404-503-4512,5048372596655270,mastercard
81306 Emmet Court,Jacksonville,Florida,32259,904-247-5071,5048370785573668,mastercard
416 Homewood Circle,Newark,New Jersey,07112,201-251-5704,5108754352581112,mastercard
5938 Hauk Trail,Akron,Ohio,44310,330-863-1424,5108750397357708,mastercard
319 Jenifer Crossing,Madison,Wisconsin,53726,608-597-4977,5048378510949566,mastercard
39518 Arapahoe Parkway,Columbia,Missouri,65218,573-288-5030,5048373980441640,mastercard
6271 Hoepker Lane,Oklahoma City,Oklahoma,73135,405-842-6911,5048376322777126,mastercard
342 Superior Lane,Washington,District of Columbia,20535,202-481-1974,5048370774897938,mastercard
05 Dryden Place,Arlington,Virginia,22205,703-159-2724,5048370267319804,mastercard
148 East Drive,Oklahoma City,Oklahoma,73173,405-580-2532,5048379198841125,mastercard
31 Bay Parkway,Washington,District of Columbia,20073,202-543-9798,5108750436612261,mastercard
79 Monterey Alley,Tulsa,Oklahoma,74149,918-736-8190,5108753311783223,mastercard
38229 Sommers Alley,Birmingham,Alabama,35290,205-477-6209,5108753780146795,mastercard
841 Darwin Parkway,Washington,District of Columbia,20073,202-614-3031,5108754346847439,mastercard
91731 Merrick Pass,Las Vegas,Nevada,89150,702-242-0738,5048377618814029,mastercard
0 Meadow Vale Lane,Phoenix,Arizona,85077,602-396-7910,5108753713308579,mastercard
34 Bashford Avenue,Charlotte,North Carolina,28278,704-404-0057,5108750353897366,mastercard
1699 Holy Cross Point,Vero Beach,Florida,32969,772-634-0305,5048372214930824,mastercard
7 Fordem Road,Lees Summit,Missouri,64082,816-376-8612,5048377842135092,mastercard
68596 Sloan Crossing,Dallas,Texas,75231,972-574-7601,5048379165781916,mastercard
65687 Hanover Terrace,Norfolk,Virginia,23551,757-454-7423,5108752616809519,mastercard
08 Dunning Place,Amarillo,Texas,79176,806-531-9901,5108750753774314,mastercard
9369 Blackbird Terrace,Clearwater,Florida,34620,727-844-5305,5108758106654265,mastercard
182 Westerfield Terrace,Houston,Texas,77250,713-387-2364,5048376958407543,mastercard
0605 Mosinee Plaza,San Diego,California,92153,619-913-6640,5048375831420277,mastercard
6911 Havey Center,Memphis,Tennessee,38114,901-234-2798,5048375148350761,mastercard
2 Johnson Point,San Diego,California,92137,619-284-4552,5108759043465542,mastercard
4 Gulseth Park,Arlington,Virginia,22225,571-904-4021,5108756343066160,mastercard
9 Boyd Crossing,Albuquerque,New Mexico,87121,505-709-1014,5048372409982424,mastercard
9788 Old Shore Plaza,North Hollywood,California,91616,213-586-7452,5048376241654109,mastercard
22 Pond Hill,Springfield,Illinois,62794,217-973-7505,5108758509152958,mastercard
5530 Sachs Avenue,Berkeley,California,94705,510-345-0977,5048373567529189,mastercard
343 Blaine Junction,Evansville,Indiana,47737,812-552-6746,5048378967043046,mastercard
9 Sheridan Terrace,Washington,District of Columbia,20370,202-655-7352,5108758106056800,mastercard
004 Leroy Circle,Phoenix,Arizona,85083,602-622-7855,5108758351650521,mastercard
58 Florence Street,Richmond,Virginia,23213,804-135-0397,5048377709187335,mastercard
9 Judy Way,Daytona Beach,Florida,32128,386-496-9585,5048372243112923,mastercard
3 Vahlen Way,Dallas,Texas,75353,214-617-5953,5108759942482069,mastercard
22 Shasta Way,Sterling,Virginia,20167,571-714-1657,5048377360213305,mastercard
98642 Merrick Road,Milwaukee,Wisconsin,53234,414-122-0733,5108755257237817,mastercard
955 Thierer Alley,Beaumont,Texas,77705,409-891-9645,5048372912245467,mastercard
3961 Veith Crossing,Bakersfield,California,93305,805-343-2875,5048372580085088,mastercard
6013 2nd Park,San Francisco,California,94110,562-105-0495,5108752094224116,mastercard
0360 Algoma Pass,Santa Cruz,California,95064,831-667-1521,5048379723194107,mastercard
30817 Namekagon Pass,Wilmington,Delaware,19886,302-760-7669,5048378129765296,mastercard
5320 Weeping Birch Street,Harrisburg,Pennsylvania,17105,717-673-9125,5048371968278711,mastercard
0476 Jenna Place,Rockford,Illinois,61105,815-712-0852,5048376586636208,mastercard
79 Northwestern Parkway,Winston Salem,North Carolina,27105,704-455-5258,5108756656633028,mastercard
18122 Karstens Drive,Houston,Texas,77299,713-952-1489,5108754299014078,mastercard
12 Burning Wood Circle,Akron,Ohio,44305,330-988-6827,5048379408459502,mastercard
56167 Village Green Parkway,Kansas City,Missouri,64142,816-397-5424,5048376884668507,mastercard
8 Kingsford Hill,New York City,New York,10131,212-658-7983,5108754255140354,mastercard
716 Atwood Court,Cincinnati,Ohio,45228,513-127-2614,5048374085130609,mastercard
587 3rd Alley,Topeka,Kansas,66611,785-200-8549,5048377022573658,mastercard
6 International Park,Des Moines,Iowa,50305,515-790-7654,5108754339176440,mastercard
9608 Pleasure Place,Monroe,Louisiana,71213,318-249-5070,5048378809231734,mastercard
2768 Atwood Way,Cincinnati,Ohio,45213,513-478-0367,5108759037718153,mastercard
738 Kingsford Road,Alhambra,California,91841,626-111-3887,5108759989015509,mastercard
2012 Knutson Hill,Sacramento,California,94291,916-474-0529,5048372350053548,mastercard
76167 4th Avenue,Atlanta,Georgia,30336,404-253-7984,5048374091488892,mastercard
4 Clarendon Parkway,Sacramento,California,94237,916-956-6062,5108753373537681,mastercard
40026 Bunker Hill Circle,Colorado Springs,Colorado,80910,719-967-3777,5048374149158588,mastercard
77434 Schmedeman Parkway,Washington,District of Columbia,20566,202-899-2550,5048375036680055,mastercard
4484 Towne Place,Hot Springs National Park,Arkansas,71914,501-660-5469,5108751476375587,mastercard
20580 Hudson Trail,Saint Augustine,Florida,32092,904-690-0382,5108757828317854,mastercard
7887 Butterfield Crossing,Washington,District of Columbia,20397,202-533-1324,5108758774886223,mastercard
0574 Norway Maple Hill,Nashville,Tennessee,37245,615-753-2436,5048378731928381,mastercard
1 Ryan Circle,Sacramento,California,95838,916-637-9796,5048373053121996,mastercard
0620 Randy Plaza,Birmingham,Alabama,35254,205-473-1259,5108750781128194,mastercard
42040 Golden Leaf Way,Peoria,Illinois,61640,309-191-8201,5048377966033214,mastercard
1663 Logan Circle,Indianapolis,Indiana,46254,317-264-8700,5108758349682602,mastercard
365 Cottonwood Terrace,Tucson,Arizona,85715,520-585-6289,5048378960106741,mastercard
3847 Gulseth Lane,Ogden,Utah,84403,801-595-8399,5048371452658188,mastercard
50779 Fair Oaks Center,Kissimmee,Florida,34745,407-783-6515,5108757883007770,mastercard
244 Hanover Alley,Lexington,Kentucky,40576,859-250-8767,5108752670658562,mastercard
43 Old Gate Park,Austin,Texas,78769,512-265-0846,5108756732679128,mastercard
0 Blue Bill Park Point,Tulsa,Oklahoma,74170,918-739-6800,5048370783395916,mastercard
1 Eagle Crest Hill,Tulsa,Oklahoma,74156,918-138-2582,5108754339257752,mastercard
3236 Hudson Avenue,Hampton,Virginia,23663,757-255-7912,5048371466109665,mastercard
79448 Hudson Alley,Toledo,Ohio,43605,419-453-7880,5048372441041239,mastercard
90 Fremont Avenue,Jersey City,New Jersey,07310,201-570-6545,5048379602261928,mastercard
14 Graceland Park,Spokane,Washington,99205,509-986-2581,5108759511133242,mastercard
773 Straubel Circle,Hagerstown,Maryland,21747,240-292-5197,5048377245106757,mastercard
1 Northport Court,Portland,Maine,04109,207-178-7434,5108753304013828,mastercard
98 Longview Pass,Wichita Falls,Texas,76305,940-853-7849,5108750632175949,mastercard
82212 Fieldstone Pass,Columbus,Ohio,43204,614-394-0276,5048379007128482,mastercard
