street,city,state,zip,phone,cc,cc_type
835 Comanche Way,Portland,Maine,04109,207-748-8620,5048378353346243,mastercard
441 3rd Drive,Fresno,California,93773,559-973-5371,5108758115725528,mastercard
93 Bayside Park,Mobile,Alabama,36628,251-539-0106,5048370404593063,mastercard
2304 Glendale Plaza,Houston,Texas,77020,281-683-1330,5108757813152597,mastercard
370 Washington Park,Palo Alto,California,94302,310-335-5647,5108757968135108,mastercard
0950 Buena Vista Road,Omaha,Nebraska,68124,402-878-4046,5048376113407867,mastercard
39 Karstens Alley,Seattle,Washington,98158,425-288-2796,5108755446353731,mastercard
259 Spaight Court,Chicago,Illinois,60663,312-702-7780,5048375226066057,mastercard
21 Eagan Lane,Washington,District of Columbia,20540,202-860-5201,5048378532775098,mastercard
8 Dwight Plaza,Redwood City,California,94064,650-546-9377,5108757013884239,mastercard
931 Daystar Terrace,Jacksonville,Florida,32277,904-711-7844,5108750212418982,mastercard
426 Killdeer Court,El Paso,Texas,88574,915-279-7311,5048374318040344,mastercard
69 Mayer Junction,Omaha,Nebraska,68105,402-341-1957,5108757178940008,mastercard
1 Atwood Junction,Oklahoma City,Oklahoma,73190,405-207-4732,5048376024965193,mastercard
1 Manley Parkway,Beaufort,South Carolina,29905,843-647-3700,5048375571032738,mastercard
67 Prairie Rose Drive,Migrate,Kentucky,41905,502-677-9900,5048372644435857,mastercard
7 Lyons Lane,Las Vegas,Nevada,89150,702-987-5476,5108752246847814,mastercard
33 Hudson Plaza,Houston,Texas,77218,713-122-4927,5048377694590428,mastercard
9473 Schiller Drive,Chicago,Illinois,60663,312-819-7272,5048370912444668,mastercard
37 Banding Center,Port Charlotte,Florida,33954,941-485-9899,5048375381178978,mastercard
66 Myrtle Drive,Young America,Minnesota,55573,952-977-2188,5108752858783406,mastercard
8855 Sachs Avenue,Inglewood,California,90305,310-143-7063,5108757927237516,mastercard
26053 Blackbird Point,Houston,Texas,77025,281-813-3418,5108755343579925,mastercard
0474 Westend Plaza,Houston,Texas,77075,832-391-3976,5048374152765766,mastercard
4 1st Avenue,Charlottesville,Virginia,22903,434-748-1768,5108754445323753,mastercard
14685 Holy Cross Pass,Atlanta,Georgia,31190,404-102-2327,5048370602062259,mastercard
5 Anhalt Avenue,Springfield,Missouri,65805,417-192-1288,5108757685648532,mastercard
9596 Mesta Point,Biloxi,Mississippi,39534,228-684-2082,5048378090197941,mastercard
378 Bunker Hill Trail,Boston,Massachusetts,02109,617-653-3434,5108752660098308,mastercard
2 Bunting Avenue,Charleston,West Virginia,25336,304-604-7309,5108750298128166,mastercard
71435 Vahlen Alley,Billings,Montana,59105,406-334-6794,5048373001791551,mastercard
6 Laurel Pass,Raleigh,North Carolina,27658,919-429-2131,5108758555624033,mastercard
0252 Nevada Trail,Evansville,Indiana,47732,812-420-4829,5108750077492619,mastercard
77 David Junction,West Palm Beach,Florida,33416,561-401-4435,5108758620806847,mastercard
661 Reindahl Lane,Atlanta,Georgia,30392,404-315-9548,5108754631367697,mastercard
74021 Kingsford Center,Columbus,Ohio,43231,614-304-9885,5048378588605561,mastercard
3546 Michigan Pass,Memphis,Tennessee,38114,901-907-0003,5048375822256474,mastercard
58 Hanson Terrace,Shreveport,Louisiana,71130,318-927-9672,5048370271515355,mastercard
96836 Crowley Road,Ventura,California,93005,805-914-4494,5108751819204957,mastercard
60487 Sugar Pass,Fairbanks,Alaska,99709,907-413-5656,5048376791367649,mastercard
70878 Marquette Center,Houston,Texas,77223,713-806-7309,5108750193396389,mastercard
906 Haas Way,Pueblo,Colorado,81010,719-434-5769,5048371134664711,mastercard
7 Atwood Road,Palatine,Illinois,60078,847-912-5208,5048379339593593,mastercard
36065 Comanche Avenue,Madison,Wisconsin,53705,608-524-0149,5048379472488734,mastercard
21691 Spohn Point,Chicago,Illinois,60641,312-740-2342,5048376854573190,mastercard
20711 Marquette Way,Minneapolis,Minnesota,55487,612-455-7290,5108758978911496,mastercard
457 Dryden Road,Conroe,Texas,77305,936-983-6771,5108758767888293,mastercard
67 Lillian Lane,Charlotte,North Carolina,28247,704-647-3600,5108752861070163,mastercard
6 Sutteridge Plaza,Birmingham,Alabama,35263,205-396-4054,5108755934980979,mastercard
18 Stone Corner Street,Dallas,Texas,75392,214-828-3143,5048377880665638,mastercard
9 Corscot Junction,Reading,Pennsylvania,19605,610-204-2423,5048379861547520,mastercard
0215 Lakeland Circle,Dallas,Texas,75310,214-530-7168,5108756767902007,mastercard
7 Glacier Hill Junction,Atlanta,Georgia,31106,404-175-8998,5048377856124024,mastercard
9299 Tomscot Hill,Kansas City,Missouri,64130,816-861-6025,5108757200750524,mastercard
92 Kensington Point,Topeka,Kansas,66617,785-672-9638,5048371043410982,mastercard
875 Mallard Court,Houston,Texas,77206,713-613-6818,5108752780240590,mastercard
98017 Victoria Drive,Colorado Springs,Colorado,80920,719-861-7747,5108758050767485,mastercard
06464 Cascade Plaza,Austin,Texas,78732,512-913-2598,5048376223646453,mastercard
21919 Lakewood Gardens Court,Clearwater,Florida,33758,813-938-2917,5108757412819760,mastercard
74 Haas Lane,Washington,District of Columbia,20508,202-917-5813,5108754287665519,mastercard
6247 Bobwhite Junction,Saint Joseph,Missouri,64504,816-733-7365,5108759316989632,mastercard
27 Donald Lane,Austin,Texas,78744,512-825-8787,5108752014259671,mastercard
5 Anderson Center,Saint Louis,Missouri,63167,314-385-9664,5048378304086195,mastercard
35 Meadow Valley Place,El Paso,Texas,79999,915-472-3028,5108750303037469,mastercard
3400 Lakewood Gardens Pass,Durham,North Carolina,27710,919-544-0153,5108758101970666,mastercard
863 Anthes Lane,Fresno,California,93721,559-842-3809,5048370354036295,mastercard
2017 Golf Course Road,Fresno,California,93704,559-278-6876,5108755078075412,mastercard
23527 Maple Court,Chesapeake,Virginia,23324,757-380-4831,5048376885904232,mastercard
297 Toban Hill,Oklahoma City,Oklahoma,73179,405-216-1191,5108759010040781,mastercard
9 Mariners Cove Center,Chattanooga,Tennessee,37416,423-656-7611,5108758621942997,mastercard
95175 Talmadge Drive,Springfield,Virginia,22156,571-924-5323,5108751903760625,mastercard
82 Melvin Drive,Philadelphia,Pennsylvania,19184,215-980-0492,5108754581246834,mastercard
88376 Vera Street,Birmingham,Alabama,35242,205-791-6413,5108750865781843,mastercard
308 Jana Plaza,Galveston,Texas,77554,409-498-7810,5108757432883515,mastercard
066 Vidon Road,Washington,District of Columbia,20503,202-333-9815,5048372889272593,mastercard
681 Ridgeway Road,Washington,District of Columbia,56944,202-649-8057,5108754929710640,mastercard
81409 Dryden Street,Berkeley,California,94705,510-948-7578,5108750642504666,mastercard
882 Warner Point,Santa Fe,New Mexico,87592,505-485-1508,5048376254181875,mastercard
6455 American Place,Annapolis,Maryland,21405,410-348-8437,5048375858572240,mastercard
2 Pepper Wood Way,Iowa City,Iowa,52245,319-696-5252,5048372062084625,mastercard
8 Eastlawn Terrace,Anderson,Indiana,46015,765-288-2115,5048372656350994,mastercard
96148 Granby Plaza,Honolulu,Hawaii,96845,808-416-3040,5108759949234018,mastercard
374 Forest Road,Saint Louis,Missouri,63121,314-922-5972,5048377967075701,mastercard
067 Longview Center,Edmond,Oklahoma,73034,405-857-7526,5048375363792804,mastercard
33799 Kipling Alley,Monroe,Louisiana,71208,318-704-6619,5048371568254948,mastercard
8 Hermina Circle,Houston,Texas,77212,713-607-0285,5048373551363686,mastercard
3 Crescent Oaks Hill,Denver,Colorado,80217,303-233-3975,5048379992342668,mastercard
870 Gale Circle,Roanoke,Virginia,24040,540-435-4722,5048371821262977,mastercard
56063 Lukken Pass,Huntington Beach,California,92648,949-201-4976,5048373274599004,mastercard
880 Thierer Place,South Bend,Indiana,46614,574-523-4175,5108752278298662,mastercard
6 Hazelcrest Point,Montgomery,Alabama,36119,334-611-8257,5048373935325385,mastercard
591 Eastlawn Center,Boston,Massachusetts,02114,857-767-1018,5048371739676920,mastercard
8 Cardinal Court,Shawnee Mission,Kansas,66205,816-475-3209,5108758946335604,mastercard
40938 Clove Center,Madison,Wisconsin,53785,608-529-5978,5108759749280989,mastercard
84754 Mallard Point,Shawnee Mission,Kansas,66205,816-819-9141,5048371056810722,mastercard
51 Alpine Place,Modesto,California,95397,209-389-6392,5048375383278693,mastercard
48107 Crest Line Parkway,Louisville,Kentucky,40225,502-350-8412,5048379225728683,mastercard
03 Glacier Hill Trail,Houston,Texas,77055,832-605-7981,5048379820625623,mastercard
3 Esker Drive,Hialeah,Florida,33018,305-352-0430,5108755178425582,mastercard
63 Kipling Junction,Fort Lauderdale,Florida,33330,954-116-6626,5048375447330142,mastercard
57904 Little Fleur Court,El Paso,Texas,79905,915-411-5134,5108757535232198,mastercard
4176 Killdeer Court,Dallas,Texas,75387,214-972-3763,5048377562571229,mastercard
27 Westend Place,Detroit,Michigan,48206,734-721-9450,5048371555294725,mastercard
2185 Anniversary Circle,Bloomington,Illinois,61709,309-639-9629,5108759895257427,mastercard
635 Division Court,Chicago,Illinois,60697,312-618-0048,5048377753790562,mastercard
8008 Atwood Road,Indianapolis,Indiana,46266,317-549-4398,5108750012560025,mastercard
7445 Anderson Alley,Charlotte,North Carolina,28220,704-287-9855,5048374996162915,mastercard
6 Carioca Lane,Minneapolis,Minnesota,55446,952-102-9011,5048376694288041,mastercard
539 Twin Pines Drive,Cleveland,Ohio,44125,216-164-5657,5108758767825360,mastercard
5 Oakridge Center,Waltham,Massachusetts,02453,781-707-1022,5048373139237758,mastercard
448 Rowland Point,Laredo,Texas,78044,956-429-6579,5048371829078698,mastercard
0 Rieder Center,Columbus,Ohio,43204,614-341-6415,5048377889062472,mastercard
87112 Bayside Avenue,Chicago,Illinois,60686,312-139-9039,5048377513850151,mastercard
70993 Hagan Crossing,Boise,Idaho,83705,208-668-6427,5048376983338416,mastercard
9 Loftsgordon Drive,Charlottesville,Virginia,22908,434-191-0760,5108751966938464,mastercard
45 Northland Plaza,Cincinnati,Ohio,45999,513-414-3679,5048374498378506,mastercard
3379 Oxford Park,Des Moines,Iowa,50305,515-457-6591,5048373331221691,mastercard
6997 Mariners Cove Terrace,Oakland,California,94616,510-576-5854,5048375246696610,mastercard
9 Blackbird Trail,Minneapolis,Minnesota,55402,763-779-7957,5108758494016903,mastercard
78588 Derek Road,Chula Vista,California,91913,619-696-5752,5108755435154124,mastercard
117 Heffernan Street,Buffalo,New York,14205,716-314-6322,5108759564692250,mastercard
35870 Scofield Point,Tucson,Arizona,85710,520-668-6947,5108759634939574,mastercard
706 Kensington Center,Bryan,Texas,77806,979-198-0439,5108755573054789,mastercard
4 Forest Run Park,Houston,Texas,77234,713-163-5211,5108758572709569,mastercard
707 Meadow Vale Street,Atlanta,Georgia,31132,404-776-5749,5048374610438063,mastercard
626 Burning Wood Way,Provo,Utah,84605,801-647-3365,5048378781485431,mastercard
9 Service Street,Houston,Texas,77010,713-509-8786,5048378322401384,mastercard
12023 Rigney Pass,Aurora,Colorado,80015,720-414-8552,5108752604947776,mastercard
39 Gulseth Park,Toledo,Ohio,43615,419-205-8382,5108757392813650,mastercard
4 Northridge Alley,Fresno,California,93778,559-132-4434,5108750770275022,mastercard
56856 Acker Trail,Fort Myers,Florida,33994,239-745-6960,5048372890194471,mastercard
901 Sugar Circle,Fort Wayne,Indiana,46825,260-363-8891,5108755332198208,mastercard
8453 Graceland Alley,Hayward,California,94544,415-773-2253,5108752636007649,mastercard
39692 Lawn Parkway,Tampa,Florida,33694,813-537-3943,5108755294290936,mastercard
9 Springs Avenue,Boise,Idaho,83727,208-686-6336,5108759089527098,mastercard
62 Union Trail,Lake Charles,Louisiana,70616,337-416-7842,5108752382904130,mastercard
62 Melby Road,Migrate,Kentucky,41905,502-265-9158,5108753163286036,mastercard
0059 Cherokee Circle,Evansville,Indiana,47725,812-952-4033,5108750448292615,mastercard
3819 Jenifer Court,Orlando,Florida,32825,954-756-4622,5048376708924979,mastercard
341 Ridgeview Avenue,Albuquerque,New Mexico,87121,505-474-8564,5048377027643647,mastercard
21 Forest Avenue,Washington,District of Columbia,56944,202-913-7298,5108758437509683,mastercard
6 Elka Lane,Shawnee Mission,Kansas,66286,913-653-9553,5048377268389710,mastercard
78 Fieldstone Junction,Syracuse,New York,13217,315-924-8573,5048378491310044,mastercard
37283 Brown Place,Milwaukee,Wisconsin,53220,414-315-4751,5108756459608243,mastercard
4609 Burrows Hill,Stamford,Connecticut,06905,203-712-6009,5048377102026353,mastercard
63657 Bobwhite Junction,Erie,Pennsylvania,16505,814-275-8352,5048372074288917,mastercard
66 Green Ridge Circle,Tacoma,Washington,98405,253-817-5708,5108753151752304,mastercard
37902 Petterle Center,Toledo,Ohio,43635,419-763-9473,5108759472687491,mastercard
825 Londonderry Junction,Palo Alto,California,94302,650-253-9326,5108750763582111,mastercard
1981 Commercial Park,Seattle,Washington,98121,206-971-5961,5048375126397750,mastercard
36 Leroy Parkway,Atlanta,Georgia,30316,404-827-2145,5108755357496909,mastercard
84162 1st Center,Minneapolis,Minnesota,55480,612-293-5699,5108756553662377,mastercard
3 Luster Parkway,Little Rock,Arkansas,72222,501-212-3086,5108754300430644,mastercard
6321 Weeping Birch Parkway,Tulsa,Oklahoma,74184,918-918-1961,5048379059218496,mastercard
90 Fairfield Lane,Wilmington,Delaware,19886,302-863-5875,5048378842192083,mastercard
109 Veith Parkway,Madison,Wisconsin,53790,608-891-9910,5108755693182288,mastercard
653 Packers Alley,Port Saint Lucie,Florida,34985,772-706-0876,5048376164738251,mastercard
42512 Badeau Way,Helena,Montana,59623,406-305-4178,5048376242730288,mastercard
4247 Mallory Park,Southfield,Michigan,48076,248-330-6845,5108759234834753,mastercard
26910 Larry Lane,Santa Rosa,California,95405,707-574-6318,5108753094472325,mastercard
3 Corry Terrace,Omaha,Nebraska,68117,402-539-8855,5108751285523278,mastercard
33 Hauk Trail,Knoxville,Tennessee,37924,865-476-6992,5108752194196438,mastercard
904 Hooker Crossing,Philadelphia,Pennsylvania,19178,215-754-5405,5048379769687006,mastercard
4382 Dottie Trail,Huntington,West Virginia,25709,304-778-3570,5048372629817806,mastercard
81 Golf Drive,Denver,Colorado,80279,303-237-9786,5048370992192112,mastercard
81374 Lawn Center,Atlanta,Georgia,30380,404-366-1610,5108754631936863,mastercard
5851 Graedel Plaza,San Francisco,California,94105,510-877-2664,5048376189388272,mastercard
6 Mariners Cove Hill,Columbus,Ohio,43226,614-628-7874,5108753739571960,mastercard
6860 Stuart Place,Idaho Falls,Idaho,83405,208-289-7676,5108754821226075,mastercard
4779 Pierstorff Point,Beaumont,Texas,77713,409-785-1038,5048371625317878,mastercard
99 Bunker Hill Way,Newport Beach,California,92662,714-220-3539,5048379997580296,mastercard
78148 East Avenue,Baltimore,Maryland,21290,410-969-7389,5048379420099773,mastercard
16 Grasskamp Trail,Portland,Oregon,97221,503-378-4472,5048375387624785,mastercard
9580 Montana Street,Charlotte,North Carolina,28256,704-297-0868,5108752869645206,mastercard
423 Wayridge Park,Fresno,California,93794,559-817-8049,5108751752493963,mastercard
5020 Oneill Terrace,Pasadena,California,91131,626-395-8148,5108758942209506,mastercard
7 Debs Crossing,Iowa City,Iowa,52245,319-987-3899,5108750383227642,mastercard
347 Dryden Place,Fresno,California,93726,209-206-7558,5108753886622053,mastercard
5556 Fordem Road,Portland,Oregon,97229,503-111-2802,5048372828575247,mastercard
62 Killdeer Center,Chattanooga,Tennessee,37410,423-587-1568,5108759319568342,mastercard
59524 Division Circle,Des Moines,Iowa,50310,515-498-3804,5108754403999347,mastercard
80 Anhalt Court,Huntington,West Virginia,25709,304-562-6801,5048372222165447,mastercard
91 Waxwing Crossing,Memphis,Tennessee,38197,901-775-2779,5048379628483845,mastercard
53062 Talisman Alley,Buffalo,New York,14269,716-393-7263,5108756973682781,mastercard
93250 Talisman Trail,Louisville,Kentucky,40205,502-395-9553,5048370542302120,mastercard
18747 Riverside Circle,Sacramento,California,95823,510-689-4925,5108752014078964,mastercard
7 Muir Parkway,Shreveport,Louisiana,71115,318-516-7241,5048375756008305,mastercard
48 Dwight Center,Baltimore,Maryland,21211,443-938-0910,5108753530637994,mastercard
71 New Castle Trail,Richmond,Virginia,23272,804-460-1297,5048372531257711,mastercard
083 Pawling Road,Seattle,Washington,98133,206-532-4301,5108751212656100,mastercard
74524 Warrior Court,Fresno,California,93704,209-371-0203,5108752971733528,mastercard
241 Debra Court,Jacksonville,Florida,32259,904-628-3542,5108750703140277,mastercard
36 Ilene Circle,Salt Lake City,Utah,84152,801-685-6663,5108753984316095,mastercard
1 Mccormick Avenue,Milwaukee,Wisconsin,53220,414-639-3368,5048374244091551,mastercard
4347 Melvin Circle,Saint Louis,Missouri,63136,314-826-9371,5048373763608886,mastercard
1563 Merrick Junction,Longview,Texas,75605,903-307-2089,5108753302939230,mastercard
1 Vermont Circle,West Palm Beach,Florida,33421,561-124-1965,5108755616459862,mastercard
9 Gina Place,Valley Forge,Pennsylvania,19495,484-325-0195,5048371595599331,mastercard
7 Hansons Plaza,Mount Vernon,New York,10557,914-185-3546,5108757140338653,mastercard
618 Knutson Park,El Paso,Texas,79911,915-763-3648,5048374564225847,mastercard
7506 Kenwood Hill,San Francisco,California,94177,415-686-2003,5108755287196314,mastercard
0 Truax Terrace,Saginaw,Michigan,48609,989-610-0003,5048373373504665,mastercard
066 Sherman Lane,Hot Springs National Park,Arkansas,71914,501-197-2753,5108755797211827,mastercard
72 Hazelcrest Pass,Dallas,Texas,75353,214-980-4956,5048376754509427,mastercard
3 Forest Dale Crossing,Largo,Florida,33777,727-204-5087,5048376319561061,mastercard
6 Mayfield Lane,Bronx,New York,10454,718-763-9562,5048374667356853,mastercard
41 Nobel Parkway,Olympia,Washington,98506,360-878-7944,5108754574184133,mastercard
1107 Warbler Hill,Denver,Colorado,80228,303-959-1801,5048379924168504,mastercard
1258 Carey Pass,Erie,Pennsylvania,16534,814-410-6740,5108758030975208,mastercard
58732 Kedzie Place,Frankfort,Kentucky,40618,502-650-3173,5108755775365587,mastercard
61047 Starling Point,Canton,Ohio,44720,330-641-6387,5108750063343982,mastercard
8171 Sage Trail,Indianapolis,Indiana,46278,317-394-3085,5108753247323060,mastercard
522 Texas Parkway,Charlotte,North Carolina,28247,704-378-4474,5108755789137097,mastercard
52990 Vernon Plaza,Seattle,Washington,98127,206-380-5137,5048371083799286,mastercard
347 Lukken Lane,Oklahoma City,Oklahoma,73190,405-825-5417,5108758060714873,mastercard
8 Holy Cross Road,Cedar Rapids,Iowa,52405,319-541-5624,5108752997267121,mastercard
8368 Sutteridge Junction,Saint Paul,Minnesota,55108,612-214-9927,5108756092798286,mastercard
8 Grasskamp Parkway,Boston,Massachusetts,02124,617-815-6783,5048373780760892,mastercard
88859 Buell Center,Albuquerque,New Mexico,87110,505-566-9262,5108758909683420,mastercard
17104 Holmberg Crossing,Indianapolis,Indiana,46221,317-569-6093,5048378728673404,mastercard
14162 Hansons Avenue,Biloxi,Mississippi,39534,228-918-8739,5048378204274677,mastercard
26 Debra Trail,Milwaukee,Wisconsin,53220,414-305-0275,5048376900450104,mastercard
5665 Chive Street,Mc Keesport,Pennsylvania,15134,412-268-5717,5048371606085858,mastercard
9 Spohn Park,Fort Lauderdale,Florida,33305,954-161-9222,5048375274650125,mastercard
826 Fair Oaks Way,Pasadena,California,91125,626-680-4080,5108756382262514,mastercard
9 Badeau Point,Birmingham,Alabama,35242,205-546-6934,5048377132740080,mastercard
960 Center Road,Hattiesburg,Mississippi,39404,601-315-2905,5108758041672968,mastercard
5095 Monterey Court,Newport News,Virginia,23605,757-781-6380,5048376971084691,mastercard
21 Kenwood Lane,Canton,Ohio,44760,234-857-5457,5048378212988128,mastercard
8695 Grasskamp Court,Ocala,Florida,34479,352-450-6294,5048374712388273,mastercard
20241 Orin Place,Baton Rouge,Louisiana,70826,225-724-0905,5048370983388885,mastercard
7 Warrior Road,Macon,Georgia,31296,478-904-5571,5048373296260189,mastercard
55 Corry Trail,Detroit,Michigan,48232,313-805-9750,5048378787715237,mastercard
3899 Doe Crossing Hill,Boise,Idaho,83732,208-797-9081,5048376763924807,mastercard
5968 Fieldstone Avenue,Vancouver,Washington,98664,360-355-5003,5108752383407216,mastercard
7 Blaine Parkway,Kingsport,Tennessee,37665,423-736-7690,5108752596831038,mastercard
2 Porter Junction,San Antonio,Texas,78278,210-436-3521,5108753919184212,mastercard
6563 Ilene Plaza,Boston,Massachusetts,02114,781-919-3751,5048378350899863,mastercard
29 Sunnyside Crossing,Detroit,Michigan,48267,313-446-7363,5048372362283299,mastercard
2 Vera Avenue,Portland,Oregon,97296,503-335-7773,5108755259308491,mastercard
39228 Thierer Park,Seattle,Washington,98109,206-537-9109,5108755074269589,mastercard
1 Moulton Place,Melbourne,Florida,32941,321-364-0702,5048379472814327,mastercard
22 Sage Drive,New Orleans,Louisiana,70142,504-474-0545,5048379081786197,mastercard
14 Becker Terrace,Atlanta,Georgia,31119,770-908-1665,5108759462518896,mastercard
6090 Fulton Terrace,Chicago,Illinois,60614,312-965-1216,5048378545232715,mastercard
8911 South Pass,Pittsburgh,Pennsylvania,15210,724-416-8673,5048370889006201,mastercard
81 Victoria Point,Washington,District of Columbia,20337,202-560-5964,5108758598958000,mastercard
1 Karstens Avenue,Lake Charles,Louisiana,70607,337-417-4773,5108757392053273,mastercard
9499 Westport Lane,Pasadena,California,91199,626-106-9608,5108750654082973,mastercard
9045 Anderson Point,Los Angeles,California,90010,213-353-7626,5048379541043957,mastercard
55 Eliot Lane,Winston Salem,North Carolina,27116,336-952-4671,5048370929328433,mastercard
3 Bowman Circle,Arlington,Texas,76004,817-764-4833,5108759768610918,mastercard
9616 Eastlawn Park,Atlanta,Georgia,30392,404-982-3654,5108754511272496,mastercard
55353 Arrowood Way,Kansas City,Missouri,64179,816-982-5714,5108753168256943,mastercard
9 Sycamore Pass,San Antonio,Texas,78296,210-920-6438,5108755327740089,mastercard
02083 Oneill Park,Colorado Springs,Colorado,80925,719-648-7027,5048372338691641,mastercard
5 Canary Terrace,Charleston,South Carolina,29416,843-445-7984,5048373575554666,mastercard
04 Clarendon Point,Syracuse,New York,13251,315-483-3998,5048377278716068,mastercard
045 Mariners Cove Court,Minneapolis,Minnesota,55470,612-493-3869,5048373789121435,mastercard
195 Tony Drive,Richmond,Virginia,23208,804-447-0358,5048372408317937,mastercard
7 Bellgrove Alley,Hartford,Connecticut,06145,860-505-8576,5108751190239945,mastercard
70 Russell Center,Hartford,Connecticut,06160,860-149-8148,5048371444904203,mastercard
4 Debra Court,Pasadena,Texas,77505,281-156-7405,5108753884620836,mastercard
17538 Sachs Alley,Cincinnati,Ohio,45213,513-887-4759,5108754179400447,mastercard
05 Granby Parkway,Dallas,Texas,75231,972-395-7105,5108752523816656,mastercard
97 Golden Leaf Park,Greeley,Colorado,80638,970-619-1815,5048370862472347,mastercard
7 Loeprich Street,Alexandria,Virginia,22333,571-790-0207,5108759951066548,mastercard
2 Boyd Way,Virginia Beach,Virginia,23471,757-523-7669,5108752612092573,mastercard
103 Crescent Oaks Pass,Atlanta,Georgia,30316,678-948-8509,5048379820999382,mastercard
186 Corry Alley,Akron,Ohio,44321,330-393-8998,5048378194083971,mastercard
5270 Commercial Court,Newton,Massachusetts,02458,617-352-1292,5108759170791371,mastercard
5363 Scott Pass,Houston,Texas,77228,713-983-8296,5108756316317780,mastercard
165 Bellgrove Junction,Utica,New York,13505,315-519-3206,5108754659156600,mastercard
3 Kensington Trail,New York City,New York,10131,212-122-1343,5048371741552812,mastercard
25943 Bowman Circle,Brooksville,Florida,34605,352-373-7880,5048372818891372,mastercard
812 Karstens Crossing,Greensboro,North Carolina,27499,336-856-3354,5108752320899954,mastercard
5081 Waxwing Center,Kansas City,Missouri,64130,816-510-1194,5108755908200222,mastercard
2435 Harper Crossing,Roanoke,Virginia,24004,540-544-1377,5108757617120766,mastercard
64585 Barnett Place,Providence,Rhode Island,02905,401-693-8449,5048379527870894,mastercard
864 High Crossing Way,El Paso,Texas,79955,915-575-5192,5048376721734843,mastercard
095 Monterey Avenue,Austin,Texas,78703,512-490-2865,5108759486959696,mastercard
2798 Union Court,Newark,New Jersey,07195,862-596-0984,5108754443828852,mastercard
30 Briar Crest Parkway,Oklahoma City,Oklahoma,73179,405-218-5492,5048376902104998,mastercard
838 Carberry Crossing,Augusta,Georgia,30905,706-898-9064,5108751412643627,mastercard
5891 Carpenter Crossing,Houston,Texas,77299,713-864-8542,5048371239698564,mastercard
4 7th Parkway,Dallas,Texas,75265,214-675-1954,5108754595975030,mastercard
8178 Evergreen Lane,Glendale,Arizona,85311,602-505-0902,5108757560767498,mastercard
75 Mayer Court,New York City,New York,10249,212-964-1752,5108758431225567,mastercard
2 Trailsway Way,Fort Wayne,Indiana,46805,260-653-5727,5108757773263152,mastercard
86 Laurel Point,Tacoma,Washington,98424,253-714-0458,5108759137120649,mastercard
1 Express Hill,Seminole,Florida,34642,941-971-3475,5048375597402980,mastercard
989 Shoshone Street,Minneapolis,Minnesota,55448,612-326-7423,5048377172174737,mastercard
52 Lighthouse Bay Lane,Boise,Idaho,83711,208-817-1739,5108750160043485,mastercard
25233 Northport Point,Shreveport,Louisiana,71161,318-334-3616,5048379671596642,mastercard
5 Dovetail Street,Dayton,Ohio,45426,937-914-2977,5048373293982009,mastercard
246 Utah Road,Syracuse,New York,13251,315-940-4947,5048378742215372,mastercard
88301 Bayside Circle,Kansas City,Missouri,64101,816-693-8026,5108752781941782,mastercard
5359 Hoepker Drive,Dallas,Texas,75342,469-191-9438,5108754339340418,mastercard
44569 Hollow Ridge Circle,Charleston,South Carolina,29403,843-846-2571,5108755656675302,mastercard
2 8th Hill,Maple Plain,Minnesota,55579,952-812-9419,5108751168774410,mastercard
74626 Dottie Hill,Springfield,Illinois,62756,217-364-2660,5108752352911164,mastercard
88485 Harbort Trail,Oklahoma City,Oklahoma,73173,405-901-9625,5048373198958591,mastercard
1089 Ilene Pass,Pittsburgh,Pennsylvania,15235,412-843-6035,5108759064243703,mastercard
71 John Wall Pass,Toledo,Ohio,43635,419-369-7454,5108759137269396,mastercard
2 1st Street,Tampa,Florida,33647,813-934-0681,5048372767570795,mastercard
7763 Bobwhite Lane,Fullerton,California,92835,714-645-0068,5048371698130901,mastercard
3 Fieldstone Parkway,Minneapolis,Minnesota,55448,763-136-9370,5048374872903713,mastercard
036 Ruskin Avenue,Atlanta,Georgia,31106,404-715-7176,5108753771182296,mastercard
8325 Lillian Alley,Berkeley,California,94705,510-701-5646,5108751762265807,mastercard
3 Dottie Junction,Oakland,California,94660,510-712-2394,5048370708548193,mastercard
42021 Anniversary Plaza,Terre Haute,Indiana,47805,812-525-8795,5108755750937582,mastercard
53911 Holmberg Drive,North Las Vegas,Nevada,89036,702-834-2423,5108751514346392,mastercard
4239 Wayridge Drive,Washington,District of Columbia,20057,202-643-7266,5048371821329289,mastercard
66 Jackson Crossing,Evansville,Indiana,47747,812-933-6566,5048375979637450,mastercard
32033 Barnett Junction,Washington,District of Columbia,20036,202-813-7976,5048378634432200,mastercard
7 Lillian Alley,San Jose,California,95108,408-762-5634,5108751886479177,mastercard
980 Twin Pines Plaza,Honolulu,Hawaii,96845,808-567-2040,5048374192384818,mastercard
774 Pawling Park,Tuscaloosa,Alabama,35405,205-654-6020,5048371728913367,mastercard
5 Maywood Crossing,Wichita,Kansas,67215,316-859-9096,5048373600016236,mastercard
170 Fairview Street,Syracuse,New York,13210,315-353-0497,5048379315982778,mastercard
2825 Village Green Lane,El Paso,Texas,79928,915-604-6235,5108752054504879,mastercard
9 High Crossing Circle,Springfield,Massachusetts,01114,413-171-8306,5048371136166871,mastercard
047 Upham Park,Lubbock,Texas,79415,806-895-8562,5108757671434152,mastercard
633 Anderson Parkway,Atlanta,Georgia,30340,770-507-1394,5048371878091121,mastercard
649 Lawn Junction,Reno,Nevada,89595,775-899-5137,5048370407343003,mastercard
08 Cody Place,Des Moines,Iowa,50320,515-441-1097,5108759313544067,mastercard
289 Center Junction,Pensacola,Florida,32520,850-166-0506,5048371947361638,mastercard
47800 3rd Pass,Largo,Florida,33777,727-195-5150,5048373776347803,mastercard
6 Hanson Street,Gainesville,Florida,32627,352-448-3775,5108757069574494,mastercard
4376 Mayfield Park,Anaheim,California,92812,714-646-4301,5108751060404025,mastercard
3 Macpherson Terrace,Tallahassee,Florida,32314,850-455-3758,5048372914134677,mastercard
1134 Lighthouse Bay Hill,Albuquerque,New Mexico,87180,505-169-0832,5108757544620375,mastercard
2049 Bluestem Street,Evansville,Indiana,47737,812-170-7838,5048379292100279,mastercard
9290 Farragut Avenue,Omaha,Nebraska,68144,402-746-3497,5108753935396857,mastercard
11 Portage Alley,Pasadena,Texas,77505,281-203-0428,5048378053230093,mastercard
0939 Reindahl Drive,Hyattsville,Maryland,20784,301-277-1473,5048379945378389,mastercard
7224 Bartillon Terrace,Lynn,Massachusetts,01905,781-885-8326,5048371956589491,mastercard
80 Dunning Terrace,Roanoke,Virginia,24020,540-647-2752,5108757062395467,mastercard
86 Westridge Pass,Spokane,Washington,99210,509-554-4719,5048374866925888,mastercard
8 1st Drive,Cleveland,Ohio,44185,216-371-6567,5108751681641732,mastercard
455 Schiller Avenue,Atlanta,Georgia,30386,404-875-1997,5108753746148539,mastercard
8716 Ludington Place,Roanoke,Virginia,24024,540-747-5573,5108754795230178,mastercard
4085 Hallows Point,Northridge,California,91328,818-543-9686,5108750451593537,mastercard
11 Ilene Trail,Hartford,Connecticut,06105,860-276-1320,5048375582178488,mastercard
36357 Westport Lane,Panama City,Florida,32412,850-195-7128,5048378493188307,mastercard
134 Elka Drive,Knoxville,Tennessee,37924,865-247-5403,5108753716291210,mastercard
7 Katie Point,Sunnyvale,California,94089,408-943-2367,5108756762536370,mastercard
89 Independence Plaza,Anchorage,Alaska,99512,907-816-4308,5048370497219774,mastercard
4625 Nobel Circle,Albuquerque,New Mexico,87115,505-638-8432,5048374787415779,mastercard
5 Shoshone Point,Albany,New York,12227,518-604-3829,5108756870927974,mastercard
3173 Randy Center,Saint Paul,Minnesota,55114,612-469-0840,5048378216066210,mastercard
652 Erie Court,Chicago,Illinois,60686,312-689-2533,5048374494763503,mastercard
3 Pennsylvania Pass,Tampa,Florida,33661,813-349-1536,5048371306802370,mastercard
15816 Eastwood Circle,Springfield,Missouri,65805,417-345-6365,5108756445738179,mastercard
7 Killdeer Avenue,San Diego,California,92196,619-982-6685,5048373132367586,mastercard
9 Hovde Circle,Fresno,California,93704,559-109-0031,5048375555748762,mastercard
67 Haas Center,Akron,Ohio,44305,330-812-3895,5048372697133623,mastercard
8380 Glendale Street,San Francisco,California,94137,415-500-3564,5048370806501995,mastercard
2 Heath Way,North Hollywood,California,91606,818-425-3194,5048376827564870,mastercard
0655 Schurz Street,Huntington,West Virginia,25770,304-941-2934,5048376588968518,mastercard
8198 Porter Court,Erie,Pennsylvania,16550,814-138-2150,5048377457578966,mastercard
18639 West Way,Fort Wayne,Indiana,46814,260-616-0938,5108758018494354,mastercard
6 Butterfield Park,Dallas,Texas,75231,469-602-3526,5048378729050446,mastercard
0032 Tennessee Way,Metairie,Louisiana,70005,504-236-4855,5048375379116469,mastercard
0561 Goodland Parkway,Boise,Idaho,83705,208-494-5232,5108756056489567,mastercard
2487 Hintze Place,Oakland,California,94622,510-920-3588,5108751030856114,mastercard
5 Steensland Alley,Charlotte,North Carolina,28263,704-699-1976,5048370173548231,mastercard
68 Vahlen Park,Houston,Texas,77060,832-348-0628,5108758066624308,mastercard
3496 Shopko Parkway,Hartford,Connecticut,06105,203-927-3946,5048373682221753,mastercard
295 Dwight Point,Clearwater,Florida,33758,813-533-9149,5048379356803669,mastercard
78 Green Pass,New York City,New York,10280,347-182-2173,5048376841403667,mastercard
85 Northfield Park,San Diego,California,92110,949-836-3335,5048373037736349,mastercard
877 Oneill Place,Denton,Texas,76205,817-323-2743,5108755659874670,mastercard
02548 Rusk Alley,Mobile,Alabama,36616,251-366-3053,5048378232808199,mastercard
14 Wayridge Pass,Des Moines,Iowa,50315,641-363-8253,5048371541785448,mastercard
31043 Everett Parkway,Sacramento,California,94263,916-332-7066,5108753708234236,mastercard
6219 Michigan Circle,Jacksonville,Florida,32230,904-846-4317,5048372618470740,mastercard
83848 Dayton Point,San Jose,California,95160,408-793-3610,5048379401758470,mastercard
9879 Forest Dale Junction,Huntsville,Texas,77343,936-378-1195,5108754996096584,mastercard
0315 Longview Lane,Orlando,Florida,32854,407-916-1778,5108750106285331,mastercard
955 American Crossing,Minneapolis,Minnesota,55446,763-252-0712,5048377089858109,mastercard
46882 Bunting Way,Las Vegas,Nevada,89130,702-828-5035,5108755737914159,mastercard
32 Carberry Junction,Pinellas Park,Florida,34665,850-869-2030,5108757576740505,mastercard
143 Raven Pass,Houston,Texas,77293,281-158-9303,5048375167127587,mastercard
69 Nancy Crossing,Des Moines,Iowa,50330,515-762-0514,5108757948858845,mastercard
1949 Shelley Center,Atlanta,Georgia,31132,404-760-5220,5048376912272512,mastercard
0690 Hooker Street,Cincinnati,Ohio,45271,513-911-5909,5108754795614371,mastercard
2 Evergreen Parkway,Saint Louis,Missouri,63167,314-756-9885,5108758599253724,mastercard
36 Grover Center,Naples,Florida,33961,305-529-2269,5108751589536745,mastercard
06 Bashford Avenue,Sunnyvale,California,94089,408-608-9065,5108757926419032,mastercard
23598 Hallows Road,Buffalo,New York,14225,716-810-4228,5108754368096774,mastercard
633 8th Drive,Austin,Texas,78715,512-701-3020,5048376600669920,mastercard
19161 Prairieview Place,Lexington,Kentucky,40546,859-180-2808,5048370482815776,mastercard
2 Main Terrace,Miami,Florida,33124,786-284-4681,5108757337661925,mastercard
67832 Leroy Point,Round Rock,Texas,78682,512-951-2664,5108758466129296,mastercard
65 Gerald Crossing,Carlsbad,California,92013,760-305-0165,5048377604071550,mastercard
70846 Jay Avenue,Johnstown,Pennsylvania,15906,814-751-0219,5108758743423959,mastercard
682 Scofield Junction,Greensboro,North Carolina,27425,336-105-6361,5048372538076726,mastercard
668 Eliot Pass,Oakland,California,94611,510-138-3994,5108750757854534,mastercard
93 Alpine Trail,Albany,New York,12210,518-971-7863,5108752876038502,mastercard
711 Northwestern Alley,Washington,District of Columbia,20099,202-423-3212,5048376229965956,mastercard
75582 Pankratz Crossing,Burbank,California,91520,323-375-4985,5108753948896851,mastercard
51 Esker Road,Saint Paul,Minnesota,55123,952-350-5583,5048372066906658,mastercard
21 Helena Parkway,Saint Louis,Missouri,63131,314-866-0143,5048371292638184,mastercard
60 Melody Point,Spartanburg,South Carolina,29305,864-774-9864,5048372189966233,mastercard
901 Coolidge Point,Omaha,Nebraska,68124,402-750-0636,5108751710487834,mastercard
68360 Garrison Center,El Paso,Texas,79994,915-139-4893,5048371678081132,mastercard
57 Mifflin Way,Albany,New York,12210,518-629-6472,5108753738660640,mastercard
28593 Loomis Drive,Chattanooga,Tennessee,37450,423-740-1666,5048372633036633,mastercard
31575 Orin Center,Colorado Springs,Colorado,80935,719-921-6817,5108752984262424,mastercard
15 Vermont Pass,Yonkers,New York,10705,914-704-5878,5048376978669411,mastercard
84 Schmedeman Crossing,Sacramento,California,94207,916-225-7190,5048372094810971,mastercard
81 Carberry Trail,Ashburn,Virginia,22093,571-847-0268,5048372660470929,mastercard
830 Maywood Park,Berkeley,California,94705,510-174-0581,5048370675715452,mastercard
245 Heffernan Terrace,Philadelphia,Pennsylvania,19131,215-186-2955,5048379869284688,mastercard
0 Porter Road,Saint Louis,Missouri,63196,314-787-9827,5108753210113282,mastercard
42 Service Plaza,Miami,Florida,33147,305-506-6913,5048376355052397,mastercard
657 Green Court,Kansas City,Kansas,66112,913-663-9370,5108758864971786,mastercard
15 Corry Trail,Sacramento,California,95838,916-964-0046,5048377810535000,mastercard
29 Jenna Lane,Edmond,Oklahoma,73034,405-140-3890,5108759655021682,mastercard
1 Buena Vista Alley,Pasadena,California,91103,626-773-9464,5048371146915630,mastercard
00 Meadow Vale Lane,Atlanta,Georgia,30306,770-373-3692,5048370977932508,mastercard
904 Morningstar Point,San Diego,California,92165,619-771-0342,5108752052261670,mastercard
9 Mariners Cove Plaza,Eugene,Oregon,97405,541-240-5082,5048374084720368,mastercard
59270 Hagan Trail,Buffalo,New York,14269,716-825-3827,5048376033222271,mastercard
6663 Warrior Junction,Saint Louis,Missouri,63104,314-372-9540,5108754483027357,mastercard
1758 Raven Street,Hicksville,New York,11854,516-229-7787,5108758347470760,mastercard
518 Muir Hill,Denver,Colorado,80228,720-388-7137,5108755097611866,mastercard
5751 Lunder Road,Tucson,Arizona,85754,520-925-6509,5108755078225934,mastercard
9842 Hallows Park,Portland,Oregon,97255,971-636-6637,5048370760327254,mastercard
3 Barnett Way,Crawfordsville,Indiana,47937,765-778-8629,5048373568922151,mastercard
861 Onsgard Way,Beaumont,Texas,77713,936-900-7016,5048373106413895,mastercard
5 Hollow Ridge Center,Little Rock,Arkansas,72215,501-307-1538,5048379555024083,mastercard
135 Toban Junction,Odessa,Texas,79764,432-235-5468,5048376148611533,mastercard
1606 Bunker Hill Parkway,Harrisburg,Pennsylvania,17105,717-605-5638,5108755963996334,mastercard
468 Schmedeman Avenue,Portland,Oregon,97211,208-647-9485,5108754795686551,mastercard
1868 Jenifer Alley,Chattanooga,Tennessee,37405,423-846-0413,5048372188759670,mastercard
1 Alpine Parkway,Colorado Springs,Colorado,80915,719-243-0559,5108753681216770,mastercard
94 Melody Center,Austin,Texas,78737,512-347-9598,5108759221017032,mastercard
7 Blackbird Point,Worcester,Massachusetts,01610,508-247-1478,5108758724596203,mastercard
4864 Ridge Oak Crossing,Oakland,California,94622,510-288-8785,5108756456671509,mastercard
2 Coleman Crossing,Minneapolis,Minnesota,55417,651-524-5575,5108757133120167,mastercard
9 Butternut Parkway,El Paso,Texas,79950,915-987-7273,5048379136618031,mastercard
34363 Lakeland Terrace,Orlando,Florida,32803,321-511-1888,5048371427044068,mastercard
609 Summerview Terrace,Shawnee Mission,Kansas,66215,913-525-3719,5048373034401335,mastercard
8285 Lillian Parkway,North Hollywood,California,91606,323-759-9098,5048371037066774,mastercard
83 Susan Street,Des Moines,Iowa,50369,515-889-9027,5108752078333743,mastercard
933 Gerald Trail,Sacramento,California,95813,916-855-1398,5108751903262960,mastercard
21 Holy Cross Parkway,Everett,Washington,98206,425-437-6031,5108759145595279,mastercard
620 Ronald Regan Street,Jackson,Tennessee,38308,731-886-5990,5048372233526140,mastercard
5365 Meadow Ridge Point,Saint Louis,Missouri,63104,314-457-9118,5108755827254862,mastercard
24743 Thompson Pass,Cincinnati,Ohio,45213,513-472-8633,5048373568915809,mastercard
982 Old Shore Point,Las Vegas,Nevada,89145,702-168-6795,5048375708962302,mastercard
54281 Meadow Vale Pass,Los Angeles,California,90087,213-530-6942,5108750937951143,mastercard
721 Ronald Regan Alley,Philadelphia,Pennsylvania,19160,215-219-1592,5108755664720132,mastercard
1957 Gerald Crossing,Washington,District of Columbia,20215,202-922-4634,5048375340456531,mastercard
19 Sundown Alley,Oklahoma City,Oklahoma,73142,405-237-7284,5048376439601102,mastercard
12128 Warrior Court,Washington,District of Columbia,20005,202-720-2851,5048372549464473,mastercard
6 Lyons Center,Washington,District of Columbia,20599,202-805-0753,5048379290264069,mastercard
68 Muir Point,Cincinnati,Ohio,45249,513-391-4558,5108756740630105,mastercard
32713 West Road,Kansas City,Missouri,64130,816-660-9258,5048371063692246,mastercard
715 Judy Way,Muncie,Indiana,47306,765-492-2991,5048370556811768,mastercard
1 Hovde Alley,Valdosta,Georgia,31605,229-231-7626,5048373075609705,mastercard
77 Vermont Parkway,Laredo,Texas,78044,956-905-8715,5048373843003868,mastercard
92 Messerschmidt Court,Bryan,Texas,77806,979-620-7093,5048379706351153,mastercard
5520 Buhler Drive,Macon,Georgia,31217,912-430-2537,5108753985191463,mastercard
4 Manufacturers Court,Detroit,Michigan,48224,586-537-2519,5048377175837595,mastercard
293 Prairieview Hill,Flint,Michigan,48550,810-364-8113,5108758848243567,mastercard
50298 Muir Plaza,El Paso,Texas,79984,915-137-2121,5048377431653679,mastercard
07944 Buhler Hill,Saint Cloud,Minnesota,56398,320-265-6257,5048371729090314,mastercard
4 Portage Lane,Henderson,Nevada,89074,702-520-0867,5108754027445479,mastercard
579 Monica Road,Ridgely,Maryland,21684,410-749-0025,5048371906848757,mastercard
40 Gale Point,Newark,Delaware,19714,302-865-4850,5048370870893039,mastercard
383 John Wall Road,Waltham,Massachusetts,02453,978-146-1446,5108751337462152,mastercard
4413 Westridge Avenue,Boston,Massachusetts,02216,617-517-9064,5048376246107087,mastercard
74239 Maywood Center,Frankfort,Kentucky,40618,502-736-5889,5108754896528926,mastercard
73 Sommers Terrace,Wilkes Barre,Pennsylvania,18763,570-800-8825,5048376234190921,mastercard
41 Westridge Center,Colorado Springs,Colorado,80930,719-340-9646,5108756195966574,mastercard
4259 Mcbride Drive,Trenton,New Jersey,08650,609-204-5718,5048372140921137,mastercard
4273 Holy Cross Road,Arlington,Virginia,22234,571-860-0343,5048377002937931,mastercard
4 Tennessee Junction,Springfield,Massachusetts,01129,413-305-8483,5108757491688466,mastercard
93232 Reinke Road,San Francisco,California,94159,415-627-5944,5108750256443797,mastercard
467 Dayton Place,Portland,Oregon,97206,503-245-8221,5108750480757152,mastercard
5566 Cambridge Center,Denver,Colorado,80235,303-246-8715,5048371368994602,mastercard
39457 Bay Pass,Houston,Texas,77040,979-754-7439,5048376023080770,mastercard
216 Caliangt Alley,Memphis,Tennessee,38119,615-295-0760,5108754835817489,mastercard
57 Blackbird Plaza,Gadsden,Alabama,35905,256-270-8250,5048377658706838,mastercard
6 Barby Terrace,Richmond,Virginia,23220,804-122-6737,5108751068833258,mastercard
9044 Elka Avenue,New York City,New York,10175,212-618-1040,5108750314579558,mastercard
15206 Randy Road,Newark,New Jersey,07188,862-599-4164,5108753568238384,mastercard
8198 Shoshone Hill,Atlanta,Georgia,30380,404-289-1655,5048374140264229,mastercard
360 Welch Crossing,New Haven,Connecticut,06520,203-835-9931,5108754400535383,mastercard
30322 Victoria Trail,Jacksonville,Florida,32220,904-674-0800,5108755865297849,mastercard
91934 Manufacturers Hill,Austin,Texas,78783,512-730-5450,5108755874872541,mastercard
84 Hayes Park,Portland,Oregon,97271,971-729-6067,5108750448619254,mastercard
4 Esker Pass,Grand Forks,North Dakota,58207,701-406-7858,5048374194217123,mastercard
47 Blue Bill Park Alley,Palm Bay,Florida,32909,321-512-1109,5048372488278355,mastercard
3 Anthes Way,South Bend,Indiana,46699,574-890-3747,5108753553329214,mastercard
0961 Ludington Court,El Paso,Texas,79940,915-656-4939,5048374502216130,mastercard
964 Debra Circle,Kansas City,Kansas,66112,816-490-9277,5108753150863714,mastercard
6 Northridge Junction,Arlington,Virginia,22244,571-107-8882,5048374090407539,mastercard
650 Farwell Center,Roanoke,Virginia,24034,540-838-3320,5108759856114021,mastercard
41037 Daystar Trail,Omaha,Nebraska,68124,402-193-2140,5108753974643581,mastercard
34708 Schlimgen Terrace,Richmond,Virginia,23260,804-204-8191,5048371566634687,mastercard
12 Butternut Hill,Baltimore,Maryland,21281,410-795-3448,5048379337101324,mastercard
73 Sullivan Plaza,Tucson,Arizona,85720,520-184-9643,5108750784664369,mastercard
792 Fallview Hill,Wilkes Barre,Pennsylvania,18763,570-996-8168,5108757272362273,mastercard
18736 Carpenter Crossing,Terre Haute,Indiana,47812,812-612-5769,5108750803587047,mastercard
57 Florence Drive,Tucson,Arizona,85748,520-804-7015,5048375993421303,mastercard
8 Vernon Place,Cleveland,Ohio,44177,216-615-9260,5108751221842477,mastercard
1 Hermina Drive,Carson City,Nevada,89706,775-789-7681,5048375144589206,mastercard
0 Oriole Parkway,Houston,Texas,77055,713-637-5165,5108754364006785,mastercard
3 Arapahoe Alley,Miami,Florida,33283,305-919-5327,5108752432309785,mastercard
70 Bluejay Junction,Lake Charles,Louisiana,70607,337-754-5048,5108757930386318,mastercard
69607 Grayhawk Street,Glendale,Arizona,85305,623-621-9126,5108756235185839,mastercard
0 Dawn Road,Marietta,Georgia,30061,770-346-9601,5048375722067757,mastercard
07 Petterle Crossing,Minneapolis,Minnesota,55487,612-575-6330,5048379720475152,mastercard
92 Tennyson Lane,Jacksonville,Florida,32259,904-113-1268,5108754410210803,mastercard
48685 Northport Park,Louisville,Kentucky,40298,502-183-5623,5108752048312140,mastercard
1 Harbort Center,San Francisco,California,94126,415-644-1820,5108751558346225,mastercard
9 Brickson Park Drive,Houston,Texas,77025,281-231-3959,5048370103267506,mastercard
54 Rusk Court,Ocala,Florida,34479,352-735-1735,5108751974767111,mastercard
6401 Washington Lane,New York City,New York,10019,718-661-2373,5048378241339541,mastercard
28238 Mitchell Circle,Silver Spring,Maryland,20904,410-440-4022,5108754248201115,mastercard
29846 Hoepker Way,Seattle,Washington,98109,360-475-5436,5108759351388799,mastercard
1547 Grim Lane,Mount Vernon,New York,10557,914-201-8392,5048376344173601,mastercard
049 Eagle Crest Parkway,Chicago,Illinois,60609,773-357-3734,5108750190926022,mastercard
6 Oriole Road,Springfield,Missouri,65810,417-106-2347,5048371204970253,mastercard
0985 Knutson Circle,Minneapolis,Minnesota,55402,763-858-4717,5108752619250257,mastercard
70571 Kipling Street,Alhambra,California,91841,626-784-1149,5108754006241758,mastercard
75621 Clove Avenue,Orange,California,92668,760-496-4499,5048379526098992,mastercard
4 Bellgrove Drive,Gainesville,Florida,32610,352-719-4815,5048370075707000,mastercard
893 8th Pass,Bismarck,North Dakota,58505,701-525-6703,5108753232690101,mastercard
2 Cardinal Crossing,Dallas,Texas,75205,469-198-1572,5108751964287161,mastercard
7442 Holmberg Way,Grand Rapids,Michigan,49510,616-988-5995,5048372952178206,mastercard
69052 Paget Avenue,Saginaw,Michigan,48604,989-144-9535,5108755816107683,mastercard
51 John Wall Street,Chula Vista,California,91913,619-369-2195,5048375933144726,mastercard
79975 Fuller Avenue,Shreveport,Louisiana,71105,318-155-5746,5108753734644465,mastercard
25 Surrey Pass,San Jose,California,95194,408-695-1716,5108751735228163,mastercard
60994 Hanson Terrace,Pittsburgh,Pennsylvania,15279,412-370-9815,5048375862999579,mastercard
8 Russell Trail,Austin,Texas,78726,512-980-7574,5108759338373740,mastercard
70 Randy Junction,Sarasota,Florida,34238,941-612-2081,5108757285357096,mastercard
1 Russell Place,Richmond,California,94807,510-550-7311,5048379938640605,mastercard
322 Marquette Lane,Newton,Massachusetts,02162,508-313-9477,5108751408655700,mastercard
05164 Elmside Junction,Charlotte,North Carolina,28263,704-233-3813,5108754513632085,mastercard
967 Ohio Terrace,Boise,Idaho,83732,208-673-4323,5048378572299918,mastercard
6643 Florence Point,Newark,New Jersey,07104,973-155-2691,5048378365964439,mastercard
9 Merchant Lane,Decatur,Georgia,30089,770-513-5341,5048370008442139,mastercard
06892 Little Fleur Circle,Santa Barbara,California,93150,805-846-3802,5108752143877948,mastercard
088 Havey Road,Orlando,Florida,32868,407-288-5194,5108751137267793,mastercard
70728 Kinsman Terrace,Charleston,West Virginia,25321,304-301-2995,5048374086510957,mastercard
5 American Ash Park,Jackson,Mississippi,39296,601-621-3702,5048374918105570,mastercard
8 International Road,Chula Vista,California,91913,619-740-1711,5048371815913296,mastercard
1108 Morningstar Pass,Dallas,Texas,75387,214-496-7785,5108757850539862,mastercard
939 Kipling Avenue,El Paso,Texas,88584,915-948-7972,5048371718578097,mastercard
0877 Ilene Avenue,San Francisco,California,94116,415-442-3722,5108753726626140,mastercard
3 Brown Trail,Jacksonville,Florida,32230,904-358-9897,5048371749501787,mastercard
968 Sage Lane,Peoria,Illinois,61635,309-162-9263,5108753607153677,mastercard
4 Tony Drive,Shreveport,Louisiana,71137,318-941-1068,5108757118098073,mastercard
25 Superior Point,Abilene,Texas,79605,325-438-3985,5108751208915247,mastercard
764 Lukken Junction,Bakersfield,California,93311,661-631-4095,5108750948536529,mastercard
0452 Esch Way,Savannah,Georgia,31416,912-812-2975,5048374628431886,mastercard
8 Dapin Point,Homestead,Florida,33034,305-799-1673,5108753313430666,mastercard
6140 Kensington Center,Pensacola,Florida,32590,850-435-1363,5048376756814700,mastercard
8307 Lawn Court,Omaha,Nebraska,68124,402-512-4940,5048377502745412,mastercard
6138 Badeau Center,San Antonio,Texas,78296,210-753-6398,5108758522685745,mastercard
985 Springview Lane,Raleigh,North Carolina,27615,919-551-1468,5048376247877738,mastercard
4662 Talmadge Crossing,Fresno,California,93715,559-242-1234,5108751059017234,mastercard
8 Eliot Point,Sioux Falls,South Dakota,57188,605-795-0183,5108754784599203,mastercard
7 Scoville Center,Torrance,California,90505,310-844-1214,5048374426527026,mastercard
9258 Golden Leaf Road,Columbia,Missouri,65218,573-908-7387,5048377286125666,mastercard
51076 Pond Terrace,Lubbock,Texas,79491,806-313-2222,5048372531666945,mastercard
95084 Lake View Alley,New York City,New York,10115,212-174-5508,5048378969583205,mastercard
03 Tony Circle,Pompano Beach,Florida,33069,954-951-2041,5048378487606769,mastercard
89 Bellgrove Court,Pueblo,Colorado,81010,719-800-7937,5048371450920754,mastercard
54 Bluejay Avenue,Baton Rouge,Louisiana,70883,225-992-3331,5048378296640496,mastercard
36767 Hoepker Drive,Fresno,California,93740,559-424-5198,5108753652507272,mastercard
32 Green Ridge Place,Evansville,Indiana,47705,812-475-6083,5108754644139851,mastercard
919 Sachtjen Lane,Knoxville,Tennessee,37914,865-283-0584,5108754102000009,mastercard
4 Judy Street,Lincoln,Nebraska,68505,402-710-2219,5108751147388738,mastercard
3749 Cambridge Hill,Corpus Christi,Texas,78470,361-937-8430,5048374200671792,mastercard
353 Ohio Way,Milwaukee,Wisconsin,53220,414-726-5608,5048370793719683,mastercard
38 Lyons Trail,Atlanta,Georgia,31119,770-552-1464,5048379005638144,mastercard
363 Holy Cross Court,Provo,Utah,84605,801-670-7173,5108750462115809,mastercard
500 Cascade Place,Los Angeles,California,90015,626-653-8748,5108751223070713,mastercard
91 Pepper Wood Terrace,Nashville,Tennessee,37210,615-401-3820,5048376419350217,mastercard
1 Lawn Lane,Rockford,Illinois,61110,815-948-5344,5048374341294264,mastercard
9068 Anderson Way,Houston,Texas,77293,281-920-4836,5108757594646098,mastercard
368 Twin Pines Drive,Zephyrhills,Florida,33543,813-969-8853,5048372660714094,mastercard
628 Hermina Alley,Cincinnati,Ohio,45243,513-268-8140,5048371303050510,mastercard
52619 Myrtle Park,Richmond,Virginia,23277,804-666-0181,5108752400725426,mastercard
75 Mariners Cove Place,Saint Louis,Missouri,63158,314-148-6450,5108754621696451,mastercard
3088 Center Road,Albany,New York,12205,518-327-9731,5108756435915779,mastercard
13 Mitchell Alley,Omaha,Nebraska,68110,402-933-6986,5108759699990009,mastercard
0 Straubel Point,Las Vegas,Nevada,89150,702-827-2175,5108753396418455,mastercard
15 Sachs Pass,Jackson,Mississippi,39210,601-875-9719,5048370116537382,mastercard
915 Southridge Center,Myrtle Beach,South Carolina,29579,843-288-9453,5108752854938624,mastercard
50 Menomonie Plaza,Dallas,Texas,75246,214-149-4196,5048378543246261,mastercard
01 Farragut Plaza,San Diego,California,92110,949-706-1854,5108756473286448,mastercard
16351 Redwing Pass,Washington,District of Columbia,20005,202-102-8546,5048371418612105,mastercard
94 Declaration Hill,Chicago,Illinois,60669,312-462-2868,5048377901624655,mastercard
7 Cascade Way,Shreveport,Louisiana,71137,318-525-1324,5048372190114088,mastercard
8 Upham Place,Beaufort,South Carolina,29905,843-545-1968,5108759700505150,mastercard
84825 6th Way,Spokane,Washington,99210,509-786-6206,5048376807363988,mastercard
61 Milwaukee Junction,Charlotte,North Carolina,28230,704-591-3910,5108753472986847,mastercard
5 Gina Junction,Memphis,Tennessee,38168,901-714-4975,5048375899138357,mastercard
657 Messerschmidt Court,Shreveport,Louisiana,71105,318-939-6436,5048378922372449,mastercard
703 Debra Trail,Austin,Texas,78764,512-381-6171,5048377340359772,mastercard
32277 Buena Vista Court,Sacramento,California,94273,916-620-8601,5108757795757991,mastercard
15 Lerdahl Point,Fullerton,California,92640,559-317-4453,5048377387422798,mastercard
14 4th Trail,Cincinnati,Ohio,45228,513-268-4485,5048373023464690,mastercard
32894 Oakridge Lane,Houston,Texas,77015,281-886-7693,5048372446408755,mastercard
4119 Waubesa Plaza,Winston Salem,North Carolina,27105,336-752-9643,5108750480613512,mastercard
21252 Blackbird Way,Charleston,South Carolina,29411,843-823-9630,5108753639266885,mastercard
9 Shoshone Alley,White Plains,New York,10606,845-724-7504,5048376765807182,mastercard
96668 Muir Terrace,Wilkes Barre,Pennsylvania,18706,570-166-1413,5048377395713246,mastercard
2 Monterey Center,Philadelphia,Pennsylvania,19115,215-506-9113,5048370294624879,mastercard
15815 Marcy Road,Louisville,Kentucky,40266,502-752-8535,5108753773406917,mastercard
1 Spenser Center,Dayton,Ohio,45432,937-701-3866,5108757060662397,mastercard
1 Melvin Circle,Indianapolis,Indiana,46239,317-563-1409,5048376070328387,mastercard
463 Atwood Center,Erie,Pennsylvania,16565,814-562-5181,5108750022641302,mastercard
33 Buena Vista Park,Saint Augustine,Florida,32092,904-113-2271,5048374068797614,mastercard
9 Vahlen Road,Winston Salem,North Carolina,27110,336-477-6398,5108752638396172,mastercard
0631 Clove Street,Seattle,Washington,98140,425-718-5571,5108759153238119,mastercard
1 Walton Road,Inglewood,California,90305,323-164-0360,5108758833507570,mastercard
45020 Porter Trail,Colorado Springs,Colorado,80925,719-898-9990,5048374460414248,mastercard
3 Prairie Rose Trail,Detroit,Michigan,48211,313-785-8095,5108753101200222,mastercard
6080 Reinke Junction,Omaha,Nebraska,68179,402-291-4445,5108755804149408,mastercard
3116 Vermont Center,Boise,Idaho,83711,208-692-6965,5108758896966176,mastercard
4840 Golf Plaza,Lehigh Acres,Florida,33972,863-255-4191,5048370033835703,mastercard
962 Mariners Cove Center,Little Rock,Arkansas,72222,501-740-6238,5108759235120483,mastercard
4 Nobel Hill,Miami,Florida,33180,954-524-7275,5048377898412049,mastercard
506 Fisk Terrace,Fresno,California,93721,559-957-6403,5048377115070059,mastercard
9502 Paget Alley,Boise,Idaho,83711,208-328-1115,5108756591021024,mastercard
8064 Straubel Place,Columbia,South Carolina,29208,803-450-2427,5108757694069720,mastercard
5 Melby Crossing,Salt Lake City,Utah,84189,801-746-4094,5048379278035721,mastercard
2 Chive Park,Carol Stream,Illinois,60158,309-572-1940,5048372271865400,mastercard
76875 Thompson Point,Dallas,Texas,75231,972-785-6915,5108750708258884,mastercard
99 Nova Terrace,Houston,Texas,77212,713-563-0877,5108753774187581,mastercard
649 Sauthoff Hill,Baton Rouge,Louisiana,70883,225-618-7461,5048373656263781,mastercard
3 Kingsford Parkway,Lincoln,Nebraska,68531,402-708-2572,5048377909244449,mastercard
4624 Steensland Way,Wilmington,Delaware,19810,302-807-9587,5108758402156676,mastercard
52 Moulton Trail,Laredo,Texas,78044,956-102-7203,5108756435994949,mastercard
72 Maple Drive,Phoenix,Arizona,85067,602-758-8464,5048377664004038,mastercard
1723 Bluestem Street,Portland,Oregon,97286,503-369-9263,5048378240480684,mastercard
681 Logan Center,Chicago,Illinois,60604,312-817-1228,5108753439200233,mastercard
58761 Debra Pass,Gulfport,Mississippi,39505,228-482-2376,5048371663920385,mastercard
4601 Fremont Way,Chicago,Illinois,60674,312-189-8915,5108754905772382,mastercard
0 Crownhardt Terrace,Cincinnati,Ohio,45254,513-573-0388,5108758181817506,mastercard
4877 Union Court,Norwalk,Connecticut,06859,203-957-6157,5108759598184381,mastercard
046 Pawling Park,Des Moines,Iowa,50315,641-715-9024,5048375597097129,mastercard
2 Fieldstone Avenue,Washington,District of Columbia,20520,202-337-2677,5048371595316561,mastercard
46 Westerfield Lane,New York City,New York,10079,212-959-9861,5048375368902507,mastercard
24 Ruskin Place,Cumming,Georgia,30130,706-901-9577,5108752943735379,mastercard
6961 Stang Parkway,Los Angeles,California,90101,213-312-7303,5108755113643950,mastercard
74 School Trail,Las Vegas,Nevada,89155,702-673-0932,5048377743699113,mastercard
54791 Leroy Crossing,South Bend,Indiana,46634,574-152-8409,5048373435672427,mastercard
1468 Meadow Ridge Point,Columbia,Missouri,65218,573-476-1451,5108753157855432,mastercard
918 Johnson Junction,Boise,Idaho,83757,208-526-3687,5108752474552896,mastercard
0 Annamark Street,Honolulu,Hawaii,96810,808-501-8693,5048375816214455,mastercard
328 Hayes Road,Schaumburg,Illinois,60193,224-583-1726,5108753801855499,mastercard
4 Londonderry Center,Jamaica,New York,11499,212-472-7398,5048378959033369,mastercard
08 Holmberg Terrace,Houston,Texas,77206,713-825-7216,5048370353596406,mastercard
465 Messerschmidt Road,Milwaukee,Wisconsin,53215,414-390-7560,5108757746027155,mastercard
320 Ronald Regan Point,Newport News,Virginia,23605,757-695-6942,5048374523514281,mastercard
87 Westend Junction,Phoenix,Arizona,85099,602-286-9202,5108755158858919,mastercard
3535 Mifflin Avenue,Huntington,West Virginia,25775,304-176-3382,5048377787938096,mastercard
40 Lakewood Drive,Austin,Texas,78749,512-598-0758,5048375529588260,mastercard
632 Reinke Drive,Houston,Texas,77015,832-298-3557,5108753980947828,mastercard
788 Esch Plaza,Los Angeles,California,90030,213-758-0975,5048373913054544,mastercard
99 Shelley Terrace,Atlanta,Georgia,30356,404-611-2085,5048374809256698,mastercard
88 Mallory Place,Duluth,Minnesota,55811,218-472-6287,5108757155868883,mastercard
390 Manufacturers Avenue,Cleveland,Ohio,44118,216-922-5402,5108755394387137,mastercard
0279 3rd Point,Kalamazoo,Michigan,49006,269-549-4850,5048373743583654,mastercard
644 Sloan Avenue,Columbia,South Carolina,29240,803-438-9256,5048370313781973,mastercard
7 Weeping Birch Road,Washington,District of Columbia,20238,202-723-8045,5048377991303293,mastercard
4572 Commercial Trail,Chicago,Illinois,60614,773-500-0230,5108750221935232,mastercard
6047 Fuller Point,Savannah,Georgia,31416,912-163-0681,5048375179032718,mastercard
34 Nova Parkway,Newark,New Jersey,07188,862-945-6513,5108753624594424,mastercard
98 Cottonwood Hill,San Antonio,Texas,78278,210-133-3766,5108752284892946,mastercard
02263 Burning Wood Center,Huntington Beach,California,92648,949-701-5772,5048373824310464,mastercard
0687 Monument Street,Albuquerque,New Mexico,87110,505-571-7251,5048372127912679,mastercard
51730 Debra Drive,San Jose,California,95150,408-858-3550,5108753093531097,mastercard
40 Meadow Valley Plaza,Flint,Michigan,48550,810-204-8198,5048371176034088,mastercard
3 Birchwood Road,Durham,North Carolina,27705,434-810-9155,5048379261050737,mastercard
14892 Evergreen Pass,Huntington,West Virginia,25711,304-661-5197,5108750464877638,mastercard
53598 Marquette Place,Wilmington,Delaware,19886,302-874-2594,5048370427903141,mastercard
307 Banding Alley,Washington,District of Columbia,20409,202-366-0733,5108753451085751,mastercard
56630 Harper Drive,Memphis,Tennessee,38181,901-430-9650,5048377381515597,mastercard
35942 Trailsway Pass,Helena,Montana,59623,406-978-5689,5048371411943879,mastercard
854 Charing Cross Junction,Lakewood,Washington,98498,253-765-8426,5048377670132534,mastercard
18701 Union Avenue,New York City,New York,10280,646-287-9127,5048378477639705,mastercard
057 Comanche Avenue,Fort Worth,Texas,76178,682-469-3104,5048379811272948,mastercard
59 Roth Road,San Jose,California,95133,408-878-6729,5048373755183146,mastercard
129 Everett Court,Oklahoma City,Oklahoma,73109,405-923-5580,5108751581194931,mastercard
33005 Buhler Point,Houston,Texas,77260,713-245-6706,5108758443239085,mastercard
8 Prentice Court,Naples,Florida,34108,239-463-9324,5108759472906610,mastercard
158 Spaight Point,Silver Spring,Maryland,20910,202-979-7899,5108758262605044,mastercard
9575 Darwin Terrace,Bakersfield,California,93381,661-352-5275,5048376162768888,mastercard
9 Farwell Plaza,Roanoke,Virginia,24024,540-595-8114,5048373047380856,mastercard
75 Annamark Court,Greensboro,North Carolina,27499,336-338-4539,5108757152076977,mastercard
7 Carey Court,Flint,Michigan,48555,810-877-1387,5108751669785410,mastercard
50741 Waywood Circle,Bradenton,Florida,34210,941-147-4158,5108758596195753,mastercard
7 Dakota Court,Springfield,Massachusetts,01114,413-391-2471,5108757816501675,mastercard
29 Straubel Plaza,Tampa,Florida,33661,813-332-6044,5108750032661266,mastercard
24 Upham Way,Clearwater,Florida,34620,727-536-2399,5048378949455656,mastercard
694 Kipling Terrace,Chicago,Illinois,60674,312-409-3807,5108756418848724,mastercard
90 Kipling Park,London,Kentucky,40745,606-862-4471,5048378443304616,mastercard
2841 Autumn Leaf Lane,Dallas,Texas,75236,972-357-8756,5048378625454320,mastercard
226 Brown Street,Washington,District of Columbia,20041,703-790-9014,5048371710772201,mastercard
6498 Vahlen Park,Kansas City,Missouri,64136,816-893-2590,5108756239656553,mastercard
6644 Crest Line Point,Aurora,Illinois,60505,331-618-7469,5108756269998024,mastercard
1 Lake View Road,El Paso,Texas,88519,915-301-2212,5048376912222889,mastercard
3 Scofield Street,Arlington,Virginia,22205,703-472-0456,5048373980001865,mastercard
9 Westerfield Point,San Jose,California,95155,408-187-3591,5048375768662602,mastercard
91 Myrtle Crossing,Atlanta,Georgia,30316,770-415-8319,5108753999990595,mastercard
10 Stoughton Avenue,Springfield,Missouri,65810,417-258-2990,5048375572238391,mastercard
66 Johnson Avenue,Washington,District of Columbia,20016,703-996-4840,5048379177129088,mastercard
89945 Jackson Road,Washington,District of Columbia,20036,202-158-7869,5108755891560350,mastercard
92326 Bonner Court,Ocala,Florida,34474,352-734-5424,5108757731296401,mastercard
10 Talisman Crossing,Lancaster,Pennsylvania,17622,717-358-9036,5108758955617652,mastercard
59 Killdeer Lane,Vancouver,Washington,98664,360-429-4238,5108752228751851,mastercard
93 Mesta Parkway,Macon,Georgia,31210,478-261-6042,5048375091824796,mastercard
15 Alpine Park,Honolulu,Hawaii,96845,808-631-8100,5048377572608615,mastercard
69 Meadow Valley Lane,Boca Raton,Florida,33487,305-730-6454,5108752629810264,mastercard
62427 Mesta Park,Cincinnati,Ohio,45213,513-277-4045,5108754459877157,mastercard
095 2nd Lane,Baton Rouge,Louisiana,70820,225-487-0182,5108757744685897,mastercard
10 Rockefeller Alley,Tacoma,Washington,98411,253-953-5837,5108752882599190,mastercard
99 Pearson Trail,Dayton,Ohio,45426,937-318-4618,5108751235175062,mastercard
835 Lakewood Gardens Avenue,Mc Keesport,Pennsylvania,15134,412-174-2554,5108750318649118,mastercard
10245 Rutledge Parkway,Silver Spring,Maryland,20910,301-246-0767,5108753928777675,mastercard
7697 Gateway Center,Cleveland,Ohio,44177,440-321-8123,5048372398688073,mastercard
353 Dorton Avenue,New York City,New York,10019,212-876-4248,5048378918017628,mastercard
904 Namekagon Lane,Naples,Florida,33963,239-900-1287,5048376175263901,mastercard
7 Logan Parkway,Brooklyn,New York,11205,718-949-3391,5108754941019632,mastercard
98148 Di Loreto Lane,Brooklyn,New York,11205,718-348-9322,5108753623242942,mastercard
7544 Clemons Lane,Syracuse,New York,13217,315-583-3399,5108752975654449,mastercard
77828 Utah Avenue,Washington,District of Columbia,20546,202-400-0862,5048370549478964,mastercard
89496 5th Road,Monroe,Louisiana,71213,318-466-3223,5108755440007150,mastercard
724 Hooker Plaza,Ocala,Florida,34474,352-374-4808,5048379915733308,mastercard
045 Carioca Circle,San Diego,California,92145,858-838-0329,5048377145068834,mastercard
30 Arizona Lane,Pittsburgh,Pennsylvania,15266,-236-7398,5108755749111018,mastercard
44 Northfield Terrace,New Haven,Connecticut,06510,203-706-2098,5108759632744364,mastercard
92372 Rusk Park,Orlando,Florida,32803,407-678-1864,5048372371931318,mastercard
0 Warbler Lane,Englewood,Colorado,80150,303-648-4699,5048375951848265,mastercard
683 Delaware Terrace,Arlington,Virginia,22244,571-693-9873,5108750132797259,mastercard
09 Scott Point,Memphis,Tennessee,38119,615-471-5488,5048373361215910,mastercard
8 Lerdahl Terrace,Milwaukee,Wisconsin,53210,262-239-5280,5048376465233630,mastercard
02069 Barnett Street,Brooklyn,New York,11205,646-488-4247,5048373481998791,mastercard
82 Westport Drive,Wilmington,Delaware,19805,302-871-0868,5048372350148504,mastercard
7662 Rowland Parkway,Akron,Ohio,44305,330-736-6067,5108750624096319,mastercard
49199 Autumn Leaf Lane,Knoxville,Tennessee,37914,865-477-5383,5108755947069505,mastercard
05 Anhalt Circle,Columbus,Mississippi,39705,662-472-2335,5108756350615347,mastercard
7242 Quincy Terrace,Sacramento,California,95838,916-835-5690,5108759733230735,mastercard
11800 Cardinal Circle,San Antonio,Texas,78205,210-280-1119,5048379611432015,mastercard
1670 Dapin Park,Cleveland,Ohio,44185,216-364-4929,5108751306557693,mastercard
53344 Ilene Lane,Greensboro,North Carolina,27409,336-627-8028,5048377318389900,mastercard
3 Wayridge Crossing,Los Angeles,California,90020,626-252-9911,5048370328588934,mastercard
2975 Blaine Park,Charlotte,North Carolina,28247,704-957-1631,5048371788874905,mastercard
26 Rusk Center,Baton Rouge,Louisiana,70810,225-832-4509,5108757473411234,mastercard
04414 Cascade Park,New York City,New York,10184,212-470-6559,5108752619139013,mastercard
0321 Eagan Parkway,Sandy,Utah,84093,801-613-1829,5108755636224981,mastercard
76 Johnson Place,Lancaster,California,93584,661-827-2625,5048376989561912,mastercard
46 Rieder Trail,Henderson,Nevada,89012,702-135-2416,5048373700911716,mastercard
10 Montana Hill,Milwaukee,Wisconsin,53277,414-782-2260,5108756823263659,mastercard
9 Buhler Court,Ashburn,Virginia,22093,571-356-2040,5048378058358154,mastercard
453 Elgar Junction,Seattle,Washington,98195,206-820-0834,5048374153408440,mastercard
02 Rutledge Junction,Jefferson City,Missouri,65110,573-510-7445,5108759075885765,mastercard
20790 Hansons Junction,Memphis,Tennessee,38126,901-766-2912,5108758004060466,mastercard
75508 Gulseth Center,Portland,Oregon,97206,503-878-9512,5048371398617058,mastercard
647 Cascade Hill,Irvine,California,92619,949-957-5034,5108759427616249,mastercard
2878 Prairie Rose Street,Detroit,Michigan,48211,734-692-2575,5048371348183391,mastercard
67 Hovde Street,Aurora,Illinois,60505,312-183-3159,5108750535557706,mastercard
44946 6th Trail,Newport Beach,California,92662,714-850-0016,5108755200272580,mastercard
410 Superior Lane,Houston,Texas,77240,713-533-3338,5048377483210907,mastercard
8776 Petterle Court,Fargo,North Dakota,58106,701-120-8504,5048376034356615,mastercard
68 Clove Circle,Scottsdale,Arizona,85255,602-462-1234,5048371025227859,mastercard
087 Union Point,Springfield,Massachusetts,01129,413-600-8912,5108756911701271,mastercard
91160 5th Drive,Naples,Florida,33963,239-863-7625,5108752677043552,mastercard
13 Maple Alley,Brooklyn,New York,11220,718-191-5987,5108754510729546,mastercard
7656 Farwell Avenue,Tacoma,Washington,98424,206-589-1041,5048375543252935,mastercard
34 Kinsman Drive,Houston,Texas,77276,713-362-3932,5108751727466474,mastercard
0875 Dryden Parkway,Portland,Oregon,97255,971-675-6281,5108759403837504,mastercard
7386 Washington Plaza,Akron,Ohio,44329,330-977-6895,5108757714307977,mastercard
8 Spenser Terrace,Paterson,New Jersey,07544,862-129-8244,5108751714153648,mastercard
0552 Blackbird Avenue,Atlanta,Georgia,30340,770-713-0953,5048373897678227,mastercard
76 Spenser Lane,Baton Rouge,Louisiana,70826,225-226-7640,5048370152894341,mastercard
6590 Gulseth Junction,Boca Raton,Florida,33432,954-446-3164,5108758275912049,mastercard
750 Browning Avenue,Jacksonville,Florida,32225,904-881-9926,5108756602757194,mastercard
054 Boyd Road,Madison,Wisconsin,53779,608-625-8013,5108752644600443,mastercard
98 North Hill,Saint Paul,Minnesota,55166,651-371-7440,5048374922274081,mastercard
6780 Norway Maple Terrace,Johnson City,Tennessee,37605,423-315-0459,5108754182104093,mastercard
8 Rutledge Crossing,Silver Spring,Maryland,20910,240-480-2440,5048379649720167,mastercard
86 Bobwhite Trail,San Jose,California,95150,408-603-6023,5048374340044033,mastercard
4863 Cardinal Point,Milwaukee,Wisconsin,53277,414-472-8364,5108758302386340,mastercard
337 Erie Junction,Indianapolis,Indiana,46239,317-671-2518,5108759212006234,mastercard
7 Dayton Point,Roanoke,Virginia,24048,540-663-4866,5048377132093928,mastercard
28380 Anniversary Crossing,West Palm Beach,Florida,33416,561-851-5850,5108758769377741,mastercard
4642 Gerald Circle,Topeka,Kansas,66617,785-740-0506,5108750448429639,mastercard
10895 Cherokee Street,Glendale,Arizona,85305,602-640-4234,5108756923321530,mastercard
